{"type":"FeatureCollection","features":[{"type":"Feature","geometry":{"type":"GeometryCollection","geometries":[{"type":"Polygon","coordinates":[[[-77.065618,-12.06767],[-77.065088,-12.064833],[-77.063724,-12.065053],[-77.063317,-12.062884],[-77.061725,-12.063159],[-77.059912,-12.063574],[-77.05962,-12.062693],[-77.058863,-12.060317],[-77.058643,-12.059291],[-77.058599,-12.058877],[-77.058379,-12.058147],[-77.058292,-12.057792],[-77.057951,-12.05654],[-77.057677,-12.055386],[-77.05682,-12.054272],[-77.056469,-12.053779],[-77.05548,-12.052605],[-77.054865,-12.051392],[-77.053888,-12.049154],[-77.054031,-12.047546],[-77.074065,-12.049605],[-77.073831,-12.051274],[-77.074149,-12.052635],[-77.075335,-12.055879],[-77.075742,-12.056974],[-77.075884,-12.057289],[-77.07572,-12.058463],[-77.075533,-12.059163],[-77.075462,-12.059489],[-77.078224,-12.060149],[-77.078996,-12.060327],[-77.078883,-12.060965],[-77.078795,-12.061431],[-77.078235,-12.063551],[-77.077894,-12.065317],[-77.077663,-12.068157],[-77.077707,-12.06866],[-77.075082,-12.067996],[-77.071579,-12.067824],[-77.065618,-12.06767]]]}]},"properties":{"id":"65-1","EESS":"C.S. MIRONES","RIS":"RIS 1","COD_EESS":"000006192","DISTRITO":["PUEBLO LIBRE","LIMA"],"UBIGEO":[150121,150101]}},{"type":"Feature","geometry":{"type":"Polygon","coordinates":[[[-77.041643,-12.038927],[-77.043235,-12.039045],[-77.043148,-12.040022],[-77.042983,-12.041728],[-77.042895,-12.042803],[-77.042796,-12.042891],[-77.042599,-12.04296],[-77.042467,-12.043118],[-77.04239,-12.043385],[-77.042467,-12.043631],[-77.042741,-12.043868],[-77.042763,-12.043986],[-77.042763,-12.044164],[-77.042653,-12.044982],[-77.042599,-12.045801],[-77.042566,-12.045929],[-77.042445,-12.045998],[-77.04239,-12.046067],[-77.042258,-12.046304],[-77.04228,-12.04652],[-77.042423,-12.046777],[-77.0425,-12.046866],[-77.042456,-12.047664],[-77.042291,-12.049518],[-77.042247,-12.049824],[-77.042225,-12.0501],[-77.042258,-12.050179],[-77.042203,-12.050958],[-77.042049,-12.052447],[-77.041874,-12.054498],[-77.04172,-12.056274],[-77.041544,-12.058295],[-77.041445,-12.059469],[-77.04138,-12.059676],[-77.041171,-12.059764],[-77.040973,-12.060021],[-77.045568,-12.065291],[-77.042517,-12.064908],[-77.040891,-12.064688],[-77.039485,-12.064566],[-77.038976,-12.064386],[-77.038034,-12.064269],[-77.037466,-12.064225],[-77.036263,-12.064069],[-77.033937,-12.063764],[-77.035646,-12.059636],[-77.034626,-12.059498],[-77.033033,-12.059291],[-77.030013,-12.058916],[-77.030288,-12.056747],[-77.030508,-12.055199],[-77.030475,-12.054873],[-77.030376,-12.054528],[-77.028882,-12.051579],[-77.026785,-12.047595],[-77.024731,-12.043828],[-77.026334,-12.043641],[-77.02684,-12.043592],[-77.027433,-12.043641],[-77.028201,-12.0437],[-77.028728,-12.043749],[-77.029354,-12.04372],[-77.030826,-12.043099],[-77.033044,-12.042073],[-77.033934,-12.0416],[-77.034911,-12.041254],[-77.03512,-12.041136],[-77.037009,-12.040288],[-77.037986,-12.039775],[-77.03915,-12.039322],[-77.039403,-12.039243],[-77.039842,-12.039055],[-77.041643,-12.038927]]]},"properties":{"id":"2","EESS":"C.S. SAN SEBASTIAN","RIS":"RIS 1","COD_EESS":"000006191","DISTRITO":"LIMA","UBIGEO":150101}},{"type":"Feature","geometry":{"type":"Polygon","coordinates":[[[-77.081408,-12.036176],[-77.081683,-12.036215],[-77.081935,-12.036235],[-77.082067,-12.036235],[-77.082891,-12.036412],[-77.082836,-12.036975],[-77.082858,-12.037024],[-77.082792,-12.037616],[-77.08266,-12.03869],[-77.082616,-12.039016],[-77.081628,-12.038927],[-77.079882,-12.03874],[-77.077301,-12.038464],[-77.075017,-12.038227],[-77.070218,-12.037744],[-77.068933,-12.037803],[-77.067901,-12.037931],[-77.066813,-12.038099],[-77.0661,-12.038197],[-77.066187,-12.036748],[-77.066231,-12.03588],[-77.066144,-12.035781],[-77.066111,-12.035683],[-77.066001,-12.035466],[-77.065748,-12.035042],[-77.066231,-12.034973],[-77.066583,-12.034943],[-77.066923,-12.034933],[-77.067231,-12.034884],[-77.067538,-12.034913],[-77.067769,-12.034943],[-77.067912,-12.034923],[-77.068065,-12.034884],[-77.068351,-12.034815],[-77.068669,-12.034775],[-77.06924,-12.034608],[-77.069625,-12.03446],[-77.069811,-12.03442],[-77.069943,-12.03442],[-77.070152,-12.034411],[-77.070284,-12.03447],[-77.070547,-12.034509],[-77.070844,-12.034489],[-77.071338,-12.034509],[-77.071876,-12.034539],[-77.072326,-12.034568],[-77.072645,-12.034539],[-77.07281,-12.034539],[-77.073304,-12.034677],[-77.073534,-12.034746],[-77.074138,-12.034844],[-77.074457,-12.034884],[-77.074742,-12.034913],[-77.075116,-12.034933],[-77.076225,-12.035111],[-77.076873,-12.035229],[-77.077147,-12.035268],[-77.077554,-12.035367],[-77.07774,-12.035466],[-77.078015,-12.035614],[-77.078377,-12.035624],[-77.078641,-12.035643],[-77.079168,-12.035752],[-77.0793,-12.035752],[-77.079464,-12.035702],[-77.07975,-12.035702],[-77.080178,-12.035781],[-77.080442,-12.03586],[-77.080793,-12.035998],[-77.080925,-12.036038],[-77.08098,-12.036008],[-77.081123,-12.036057],[-77.0812,-12.036136],[-77.081298,-12.036136],[-77.081408,-12.036176]]]},"properties":{"id":"3","EESS":"C.S. MIRONES BAJO","RIS":"RIS 1","COD_EESS":"000006187","DISTRITO":"LIMA","UBIGEO":150101}},{"type":"Feature","geometry":{"type":"Polygon","coordinates":[[[-77.055414,-12.039805],[-77.056062,-12.039696],[-77.056545,-12.039617],[-77.056655,-12.039627],[-77.057819,-12.039479],[-77.059137,-12.039292],[-77.059159,-12.039529],[-77.059071,-12.040574],[-77.058654,-12.044785],[-77.058632,-12.044972],[-77.059961,-12.0451],[-77.059774,-12.047033],[-77.059686,-12.04799],[-77.057062,-12.047714],[-77.055085,-12.047497],[-77.054492,-12.047438],[-77.053844,-12.047378],[-77.053822,-12.047576],[-77.053756,-12.048315],[-77.053679,-12.048976],[-77.052603,-12.049154],[-77.052021,-12.049252],[-77.050472,-12.049538],[-77.049023,-12.049854],[-77.047288,-12.050248],[-77.046772,-12.050347],[-77.046662,-12.050386],[-77.045849,-12.050544],[-77.04541,-12.050603],[-77.044575,-12.050643],[-77.042972,-12.050731],[-77.042763,-12.050751],[-77.042577,-12.050751],[-77.042599,-12.050435],[-77.042697,-12.049607],[-77.04273,-12.049045],[-77.042796,-12.048414],[-77.042873,-12.047576],[-77.042895,-12.04727],[-77.042895,-12.047092],[-77.042928,-12.046905],[-77.043093,-12.046747],[-77.043192,-12.046639],[-77.043246,-12.046471],[-77.043257,-12.046422],[-77.043257,-12.046373],[-77.043246,-12.046244],[-77.043224,-12.046185],[-77.043192,-12.046126],[-77.043148,-12.046077],[-77.043093,-12.045958],[-77.043049,-12.04584],[-77.043049,-12.045751],[-77.043104,-12.045041],[-77.04317,-12.044233],[-77.043203,-12.044026],[-77.043224,-12.043956],[-77.043279,-12.043897],[-77.043367,-12.043789],[-77.043422,-12.043769],[-77.04351,-12.043651],[-77.043576,-12.043493],[-77.043587,-12.043345],[-77.043554,-12.043108],[-77.043477,-12.043079],[-77.043422,-12.04303],[-77.043389,-12.04301],[-77.043356,-12.04298],[-77.043334,-12.042951],[-77.043312,-12.042911],[-77.043279,-12.042842],[-77.043356,-12.041974],[-77.043389,-12.041678],[-77.043433,-12.041274],[-77.043488,-12.040791],[-77.043499,-12.04015],[-77.043609,-12.039016],[-77.04429,-12.039026],[-77.044597,-12.039016],[-77.045058,-12.038976],[-77.045542,-12.038868],[-77.045981,-12.038562],[-77.046233,-12.038227],[-77.046365,-12.037902],[-77.046585,-12.037566],[-77.047002,-12.037004],[-77.047463,-12.036472],[-77.04765,-12.036176],[-77.048111,-12.035781],[-77.048562,-12.035742],[-77.049199,-12.035811],[-77.049847,-12.03589],[-77.050461,-12.036028],[-77.051153,-12.036176],[-77.051823,-12.036531],[-77.052592,-12.036925],[-77.053328,-12.036925],[-77.054031,-12.036787],[-77.054075,-12.037122],[-77.054096,-12.037418],[-77.052658,-12.037556],[-77.052076,-12.037616],[-77.052087,-12.037911],[-77.052383,-12.037921],[-77.052449,-12.037931],[-77.052669,-12.037961],[-77.052768,-12.037961],[-77.053119,-12.037921],[-77.053481,-12.037852],[-77.053536,-12.038168],[-77.053624,-12.038681],[-77.054239,-12.038543],[-77.054437,-12.038473],[-77.0547,-12.0387],[-77.054711,-12.03874],[-77.054733,-12.038769],[-77.054821,-12.038829],[-77.055326,-12.038976],[-77.055326,-12.039065],[-77.05537,-12.039479],[-77.055414,-12.039805]]]},"properties":{"id":"4","EESS":"C.S. CONDE DE LA VEGA BAJA","RIS":"RIS 1","COD_EESS":"000006186","DISTRITO":"LIMA","UBIGEO":150101}},{"type":"Feature","geometry":{"type":"Polygon","coordinates":[[[-77.019438,-12.0444],[-77.023095,-12.043996],[-77.024511,-12.043848],[-77.024973,-12.044765],[-77.025961,-12.046708],[-77.027103,-12.048858],[-77.027652,-12.049854],[-77.028706,-12.051905],[-77.029376,-12.053138],[-77.030079,-12.054528],[-77.030178,-12.054696],[-77.030233,-12.054992],[-77.030233,-12.055238],[-77.030057,-12.056747],[-77.029772,-12.058877],[-77.02673,-12.058473],[-77.021777,-12.057832],[-77.01745,-12.057309],[-77.016495,-12.057181],[-77.014869,-12.05654],[-77.013749,-12.055159],[-77.013595,-12.055021],[-77.01309,-12.054311],[-77.012475,-12.053571],[-77.012486,-12.053433],[-77.0123,-12.053276],[-77.011827,-12.051846],[-77.011805,-12.05153],[-77.013013,-12.051629],[-77.012948,-12.050524],[-77.012882,-12.049528],[-77.014661,-12.049696],[-77.014782,-12.050662],[-77.014836,-12.050712],[-77.015001,-12.050731],[-77.015726,-12.050702],[-77.016088,-12.050643],[-77.016594,-12.050623],[-77.017154,-12.04868],[-77.017516,-12.047043],[-77.017911,-12.04515],[-77.017834,-12.045031],[-77.017099,-12.044952],[-77.016945,-12.044854],[-77.015715,-12.04372],[-77.015704,-12.043621],[-77.015671,-12.043375],[-77.015836,-12.043434],[-77.016209,-12.043671],[-77.016572,-12.043838],[-77.017955,-12.044331],[-77.018867,-12.04443],[-77.019438,-12.0444]]]},"properties":{"id":"5","EESS":"C.S. JUAN PEREZ CARRANZA","RIS":"RIS 1","COD_EESS":"000006171","DISTRITO":"LIMA","UBIGEO":150101}},{"type":"Feature","geometry":{"type":"Polygon","coordinates":[[[-77.064156,-12.035121],[-77.065441,-12.035121],[-77.065529,-12.035091],[-77.065869,-12.035673],[-77.065957,-12.03584],[-77.06599,-12.035969],[-77.066001,-12.036373],[-77.06599,-12.036955],[-77.065759,-12.036935],[-77.065232,-12.036758],[-77.065166,-12.036777],[-77.065133,-12.036817],[-77.065056,-12.036846],[-77.064804,-12.036836],[-77.064672,-12.036846],[-77.064584,-12.036876],[-77.064441,-12.037063],[-77.064364,-12.037093],[-77.064299,-12.037103],[-77.064255,-12.037113],[-77.064079,-12.037073],[-77.064013,-12.037073],[-77.063124,-12.037211],[-77.062025,-12.037418],[-77.061959,-12.037172],[-77.061806,-12.037182],[-77.061114,-12.037477],[-77.060631,-12.037665],[-77.059763,-12.037961],[-77.059192,-12.036442],[-77.059038,-12.035988],[-77.059489,-12.035929],[-77.059587,-12.035949],[-77.060279,-12.035791],[-77.060839,-12.035643],[-77.06107,-12.035624],[-77.061268,-12.035554],[-77.061421,-12.035505],[-77.061927,-12.035387],[-77.062651,-12.035278],[-77.063047,-12.035229],[-77.063706,-12.03517],[-77.064156,-12.035121]]]},"properties":{"id":"6","EESS":"P.S. SANTA ROSA","RIS":"RIS 1","COD_EESS":"000006190","DISTRITO":"LIMA","UBIGEO":150101}},{"type":"Feature","geometry":{"type":"Polygon","coordinates":[[[-77.064815,-12.048483],[-77.063662,-12.048374],[-77.062651,-12.048266],[-77.060916,-12.048088],[-77.059752,-12.04799],[-77.05984,-12.046974],[-77.060016,-12.0451],[-77.059994,-12.044913],[-77.05872,-12.044795],[-77.059126,-12.040584],[-77.059181,-12.04016],[-77.059203,-12.039864],[-77.059225,-12.039509],[-77.059203,-12.039282],[-77.060246,-12.039124],[-77.061531,-12.038947],[-77.06297,-12.03874],[-77.065891,-12.038335],[-77.065605,-12.040959],[-77.065496,-12.042053],[-77.065375,-12.043099],[-77.065188,-12.044982],[-77.065177,-12.045041],[-77.065144,-12.0451],[-77.065067,-12.045179],[-77.064925,-12.045278],[-77.064848,-12.045367],[-77.064815,-12.045465],[-77.064826,-12.045524],[-77.06487,-12.045663],[-77.06499,-12.045741],[-77.065023,-12.04582],[-77.065045,-12.04586],[-77.065067,-12.045958],[-77.065067,-12.046126],[-77.065045,-12.046274],[-77.065034,-12.046432],[-77.06499,-12.046826],[-77.064815,-12.048483]]]},"properties":{"id":"7","EESS":"P.S. RESCATE","RIS":"RIS 1","COD_EESS":"000006188","DISTRITO":"LIMA","UBIGEO":150101}},{"type":"Feature","geometry":{"type":"Polygon","coordinates":[[[-77.065913,-12.038227],[-77.063409,-12.038572],[-77.061575,-12.038829],[-77.060005,-12.039065],[-77.059115,-12.039193],[-77.05794,-12.039361],[-77.0576,-12.0394],[-77.05727,-12.03945],[-77.056996,-12.039479],[-77.056941,-12.039489],[-77.056644,-12.039519],[-77.056589,-12.039529],[-77.056567,-12.039548],[-77.055799,-12.039677],[-77.055469,-12.039726],[-77.055403,-12.039124],[-77.055392,-12.039055],[-77.055392,-12.038976],[-77.055392,-12.038907],[-77.055326,-12.038907],[-77.054843,-12.038759],[-77.054777,-12.03871],[-77.054733,-12.038651],[-77.054514,-12.038464],[-77.054426,-12.038414],[-77.054217,-12.038483],[-77.053679,-12.038602],[-77.053536,-12.037842],[-77.053558,-12.037832],[-77.053558,-12.037813],[-77.053547,-12.037793],[-77.053503,-12.037793],[-77.05346,-12.037783],[-77.053317,-12.037813],[-77.05291,-12.037872],[-77.052757,-12.037902],[-77.05268,-12.037902],[-77.052625,-12.037892],[-77.052427,-12.037852],[-77.052153,-12.037852],[-77.052142,-12.037685],[-77.054085,-12.037477],[-77.054162,-12.037468],[-77.05414,-12.037122],[-77.054085,-12.036758],[-77.054679,-12.03661],[-77.055041,-12.036521],[-77.055283,-12.036501],[-77.055876,-12.036541],[-77.056534,-12.03661],[-77.056985,-12.03661],[-77.057248,-12.03658],[-77.057479,-12.036501],[-77.057896,-12.036314],[-77.058072,-12.036255],[-77.058566,-12.036166],[-77.058961,-12.036018],[-77.05973,-12.03804],[-77.060027,-12.037931],[-77.060719,-12.037694],[-77.061905,-12.037211],[-77.061981,-12.037477],[-77.063069,-12.03729],[-77.064057,-12.037142],[-77.064244,-12.037162],[-77.06431,-12.037162],[-77.064408,-12.037142],[-77.064452,-12.037122],[-77.064496,-12.037093],[-77.064573,-12.036984],[-77.064628,-12.036925],[-77.064661,-12.036915],[-77.064815,-12.036896],[-77.065067,-12.036906],[-77.065155,-12.036876],[-77.06521,-12.036827],[-77.065748,-12.036994],[-77.065979,-12.037014],[-77.065924,-12.037961],[-77.065913,-12.038227]]]},"properties":{"id":"8","EESS":"C.S. VILLA MARIA PERPETUO SOCORRO","RIS":"RIS 1","COD_EESS":"000006194","DISTRITO":"LIMA","UBIGEO":150101}},{"type":"Feature","geometry":{"type":"Polygon","coordinates":[[[-77.087119,-12.061401],[-77.085252,-12.061165],[-77.083956,-12.060997],[-77.08288,-12.060839],[-77.081979,-12.060731],[-77.08053,-12.060415],[-77.078992,-12.06006],[-77.077367,-12.059656],[-77.07572,-12.059271],[-77.075994,-12.058088],[-77.076016,-12.057279],[-77.075742,-12.056264],[-77.075291,-12.055149],[-77.074523,-12.053069],[-77.074072,-12.051717],[-77.074028,-12.051057],[-77.074149,-12.049814],[-77.074182,-12.049321],[-77.07226,-12.049144],[-77.072557,-12.046215],[-77.076609,-12.04657],[-77.077887,-12.046757],[-77.07789,-12.049401],[-77.078167,-12.050023],[-77.081638,-12.050726],[-77.082715,-12.050988],[-77.085241,-12.051402],[-77.087668,-12.051826],[-77.087931,-12.054479],[-77.088239,-12.057309],[-77.088448,-12.058838],[-77.087931,-12.059488],[-77.088239,-12.060031],[-77.088151,-12.06083],[-77.087492,-12.061342],[-77.087119,-12.061401]]]},"properties":{"id":"9","EESS":"C.S. UNIDAD VECINAL N° 3","RIS":"RIS 1","COD_EESS":"000006193","DISTRITO":"LIMA","UBIGEO":150101}},{"type":"Feature","geometry":{"type":"Polygon","coordinates":[[[-77.075742,-12.038414],[-77.083091,-12.039291],[-77.082985,-12.041086],[-77.082902,-12.042283],[-77.082647,-12.044963],[-77.081666,-12.044906],[-77.081561,-12.045873],[-77.08149,-12.046839],[-77.076598,-12.046392],[-77.073392,-12.046116],[-77.072326,-12.046018],[-77.072304,-12.046225],[-77.072107,-12.048296],[-77.07203,-12.049114],[-77.06912,-12.048838],[-77.065342,-12.048483],[-77.065001,-12.048503],[-77.065089,-12.047586],[-77.065287,-12.045781],[-77.065452,-12.045722],[-77.065561,-12.045672],[-77.065748,-12.045633],[-77.065792,-12.045446],[-77.065671,-12.045386],[-77.065551,-12.045308],[-77.065474,-12.045219],[-77.06543,-12.04513],[-77.065397,-12.045041],[-77.065375,-12.044923],[-77.065386,-12.044765],[-77.065583,-12.04296],[-77.0661,-12.038306],[-77.067857,-12.038049],[-77.068944,-12.037902],[-77.070229,-12.037852],[-77.070723,-12.037892],[-77.073743,-12.038197],[-77.075742,-12.038414]]]},"properties":{"id":"10","EESS":"P.S. PALERMO","RIS":"RIS 1","COD_EESS":"000006189","DISTRITO":"LIMA","UBIGEO":150101}},{"type":"Feature","geometry":{"type":"Polygon","coordinates":[[[-77.017066,-12.045012],[-77.017802,-12.045091],[-77.017406,-12.047004],[-77.01722,-12.04798],[-77.01722,-12.048088],[-77.017099,-12.04866],[-77.01689,-12.0494],[-77.016572,-12.050554],[-77.015649,-12.050633],[-77.015375,-12.050662],[-77.015034,-12.050672],[-77.014869,-12.050652],[-77.014847,-12.050633],[-77.014749,-12.049824],[-77.014727,-12.049637],[-77.014661,-12.049637],[-77.013705,-12.049548],[-77.012772,-12.049449],[-77.012871,-12.051076],[-77.012904,-12.05156],[-77.011794,-12.051471],[-77.011729,-12.051471],[-77.011751,-12.051747],[-77.011696,-12.051658],[-77.011487,-12.050968],[-77.011169,-12.049696],[-77.011103,-12.049361],[-77.011037,-12.048532],[-77.010971,-12.047457],[-77.010982,-12.047014],[-77.011026,-12.046382],[-77.01107,-12.045919],[-77.011059,-12.04585],[-77.010949,-12.045732],[-77.010795,-12.044775],[-77.010806,-12.044519],[-77.010927,-12.043809],[-77.010927,-12.043621],[-77.006925,-12.042448],[-77.006968,-12.042999],[-77.007175,-12.043574],[-77.007463,-12.044418],[-77.008282,-12.044672],[-77.0093,-12.044578],[-77.009227,-12.046955],[-77.008527,-12.046538],[-77.008141,-12.047307],[-77.008373,-12.047578],[-77.007925,-12.048447],[-77.006776,-12.049538],[-77.004987,-12.048097],[-77.003095,-12.046964],[-77.005359,-12.039815],[-77.005623,-12.038917],[-77.005678,-12.038552],[-77.008744,-12.034248],[-77.011157,-12.036166],[-77.012557,-12.037124],[-77.013042,-12.039382],[-77.013251,-12.040265],[-77.013404,-12.040759],[-77.013622,-12.041174],[-77.013834,-12.041508],[-77.014039,-12.041808],[-77.014415,-12.042289],[-77.015037,-12.042924],[-77.015265,-12.043148],[-77.015616,-12.043404],[-77.015649,-12.043749],[-77.016901,-12.044883],[-77.017066,-12.045012]]]},"properties":{"id":"11","EESS":"P.S. JARDIN ROSA DE SANTA MARIA","RIS":"RIS 1","COD_EESS":"000006172","DISTRITO":"LIMA","UBIGEO":150101}},{"type":"Feature","geometry":null,"properties":{"id":"68-14","EESS":"C.S. SAN MIGUEL","RIS":"RIS 2","COD_EESS":"000006198","DISTRITO":["PUEBLO LIBRE","SAN MIGUEL"],"UBIGEO":[150121,150136]}}]}