{"type":"FeatureCollection","features":[{"type":"Feature","geometry":{"type":"Polygon","coordinates":[[[-77.064498,-12.035686],[-77.06537,-12.035604],[-77.065767,-12.035536],[-77.065869,-12.035673],[-77.065957,-12.03584],[-77.06599,-12.035969],[-77.066001,-12.036373],[-77.06599,-12.036955],[-77.065759,-12.036935],[-77.065232,-12.036758],[-77.065166,-12.036777],[-77.065133,-12.036817],[-77.065056,-12.036846],[-77.064804,-12.036836],[-77.064672,-12.036846],[-77.064584,-12.036876],[-77.064441,-12.037063],[-77.064364,-12.037093],[-77.064299,-12.037103],[-77.064255,-12.037113],[-77.064079,-12.037073],[-77.064013,-12.037073],[-77.063124,-12.037211],[-77.062025,-12.037418],[-77.061959,-12.037172],[-77.061806,-12.037182],[-77.061114,-12.037477],[-77.060631,-12.037665],[-77.059763,-12.037961],[-77.059182,-12.03647],[-77.059865,-12.036341],[-77.061114,-12.036027],[-77.062112,-12.035904],[-77.063019,-12.035775],[-77.063856,-12.035706],[-77.064372,-12.035699],[-77.064498,-12.035686]]]},"properties":{"id":"6","EESS":"P.S. SANTA ROSA","RIS":"RIS 1","COD_EESS":"000006190","DISTRITO":"LIMA","UBIGEO":150101}},{"type":"Feature","geometry":{"type":"GeometryCollection","geometries":[{"type":"Polygon","coordinates":[[[-77.065723,-12.067617],[-77.065145,-12.064733],[-77.063732,-12.064993],[-77.063302,-12.062657],[-77.062509,-12.062805],[-77.06162,-12.062972],[-77.060751,-12.063192],[-77.059867,-12.063423],[-77.05962,-12.062693],[-77.058892,-12.060324],[-77.058694,-12.059273],[-77.058623,-12.058873],[-77.058401,-12.058137],[-77.058292,-12.057792],[-77.058138,-12.057143],[-77.057981,-12.056555],[-77.057677,-12.055386],[-77.056842,-12.054259],[-77.056488,-12.05377],[-77.055492,-12.052529],[-77.054888,-12.051363],[-77.05441,-12.050226],[-77.053927,-12.049152],[-77.054069,-12.047629],[-77.056531,-12.047926],[-77.059037,-12.048136],[-77.06402,-12.048651],[-77.073952,-12.049675],[-77.07388,-12.05044],[-77.073836,-12.05128],[-77.074149,-12.052635],[-77.075335,-12.055879],[-77.075696,-12.056985],[-77.075796,-12.05731],[-77.075652,-12.058478],[-77.075533,-12.059163],[-77.075435,-12.059508],[-77.078186,-12.060257],[-77.078951,-12.060392],[-77.078883,-12.060965],[-77.078795,-12.061431],[-77.078235,-12.063551],[-77.077894,-12.065317],[-77.077663,-12.068157],[-77.077525,-12.068401],[-77.076378,-12.068111],[-77.075383,-12.067873],[-77.074737,-12.067762],[-77.074008,-12.06771],[-77.072891,-12.067702],[-77.071745,-12.067685],[-77.068721,-12.067625],[-77.065723,-12.067617]]]}]},"properties":{"id":"65-1","EESS":"C.S. MIRONES","RIS":"RIS 1","COD_EESS":"000006192","DISTRITO":["PUEBLO LIBRE","LIMA"],"UBIGEO":[150121,150101]}},{"type":"Feature","geometry":{"type":"Polygon","coordinates":[[[-77.04168,-12.03922],[-77.043214,-12.039255],[-77.043148,-12.040022],[-77.042983,-12.041728],[-77.042895,-12.042803],[-77.042796,-12.042891],[-77.042599,-12.04296],[-77.042467,-12.043118],[-77.04239,-12.043385],[-77.042467,-12.043631],[-77.042741,-12.043868],[-77.042763,-12.043986],[-77.042763,-12.044164],[-77.042653,-12.044982],[-77.042599,-12.045801],[-77.042566,-12.045929],[-77.042445,-12.045998],[-77.04239,-12.046067],[-77.042258,-12.046304],[-77.04228,-12.04652],[-77.042423,-12.046777],[-77.0425,-12.046866],[-77.042456,-12.047664],[-77.042291,-12.049518],[-77.042247,-12.049824],[-77.042225,-12.0501],[-77.042199,-12.050202],[-77.042161,-12.050954],[-77.042049,-12.052447],[-77.041874,-12.054498],[-77.04172,-12.056274],[-77.041544,-12.058295],[-77.041445,-12.059469],[-77.04138,-12.059676],[-77.041171,-12.059764],[-77.040973,-12.060021],[-77.045528,-12.065261],[-77.044788,-12.065107],[-77.044037,-12.06499],[-77.0433,-12.064849],[-77.042546,-12.064765],[-77.04117,-12.064578],[-77.04026,-12.064443],[-77.039416,-12.064397],[-77.038976,-12.064386],[-77.038534,-12.064313],[-77.038034,-12.064269],[-77.037759,-12.06423],[-77.037486,-12.064198],[-77.036332,-12.064005],[-77.034241,-12.063686],[-77.035646,-12.059636],[-77.034598,-12.059448],[-77.033067,-12.059262],[-77.030052,-12.058907],[-77.030319,-12.056725],[-77.030508,-12.055199],[-77.030475,-12.054873],[-77.030393,-12.054488],[-77.028882,-12.05158],[-77.026785,-12.047595],[-77.024796,-12.043817],[-77.026334,-12.043641],[-77.026811,-12.043634],[-77.027433,-12.043641],[-77.028201,-12.0437],[-77.028728,-12.043749],[-77.029354,-12.04372],[-77.030826,-12.043099],[-77.033044,-12.042073],[-77.033934,-12.0416],[-77.034911,-12.041254],[-77.03512,-12.041136],[-77.037009,-12.040288],[-77.037986,-12.039775],[-77.03915,-12.039322],[-77.039403,-12.039243],[-77.040158,-12.039267],[-77.04168,-12.03922]]]},"properties":{"id":"2","EESS":"C.S. SAN SEBASTIAN","RIS":"RIS 1","COD_EESS":"000006191","DISTRITO":"LIMA","UBIGEO":150101}},{"type":"Feature","geometry":{"type":"Polygon","coordinates":[[[-77.074781,-12.035482],[-77.076407,-12.035798],[-77.078364,-12.036119],[-77.080774,-12.036579],[-77.082836,-12.036975],[-77.082858,-12.037024],[-77.082792,-12.037616],[-77.08266,-12.03869],[-77.082616,-12.039016],[-77.081609,-12.038919],[-77.079882,-12.03874],[-77.077301,-12.038464],[-77.075017,-12.038227],[-77.072654,-12.03796],[-77.071395,-12.037821],[-77.070242,-12.037751],[-77.068933,-12.037803],[-77.067901,-12.037931],[-77.066813,-12.038099],[-77.0661,-12.038197],[-77.066187,-12.036748],[-77.066231,-12.03588],[-77.066144,-12.035781],[-77.066111,-12.035683],[-77.066009,-12.035487],[-77.067136,-12.03534],[-77.068195,-12.035208],[-77.06926,-12.035135],[-77.070486,-12.035045],[-77.071317,-12.035053],[-77.071743,-12.035061],[-77.072684,-12.035143],[-77.073608,-12.035275],[-77.073877,-12.035316],[-77.074781,-12.035482]]]},"properties":{"id":"3","EESS":"C.S. MIRONES BAJO","RIS":"RIS 1","COD_EESS":"000006187","DISTRITO":"LIMA","UBIGEO":150101}},{"type":"Feature","geometry":{"type":"Polygon","coordinates":[[[-77.055416,-12.040031],[-77.055855,-12.039958],[-77.056331,-12.039903],[-77.056704,-12.039812],[-77.057198,-12.03973],[-77.057854,-12.039618],[-77.059129,-12.039426],[-77.059116,-12.039606],[-77.059055,-12.040565],[-77.058832,-12.04268],[-77.058746,-12.043741],[-77.058654,-12.044785],[-77.058618,-12.045008],[-77.059942,-12.045113],[-77.059758,-12.047036],[-77.059708,-12.047512],[-77.059671,-12.047964],[-77.058391,-12.047806],[-77.05709,-12.047675],[-77.055085,-12.047497],[-77.054492,-12.047438],[-77.053844,-12.047378],[-77.053822,-12.047576],[-77.053756,-12.048315],[-77.053679,-12.048976],[-77.052603,-12.049154],[-77.052021,-12.049252],[-77.050472,-12.049538],[-77.049023,-12.049854],[-77.047288,-12.050248],[-77.046772,-12.050347],[-77.046662,-12.050386],[-77.045848,-12.050511],[-77.045369,-12.050574],[-77.044575,-12.050643],[-77.043204,-12.050691],[-77.042763,-12.050751],[-77.042632,-12.050709],[-77.042645,-12.050434],[-77.042697,-12.049607],[-77.042787,-12.048996],[-77.042844,-12.048458],[-77.042873,-12.047576],[-77.042895,-12.04727],[-77.042895,-12.047092],[-77.042928,-12.046905],[-77.043093,-12.046747],[-77.043192,-12.046639],[-77.043246,-12.046471],[-77.043257,-12.046422],[-77.043257,-12.046373],[-77.043246,-12.046244],[-77.043224,-12.046185],[-77.043192,-12.046126],[-77.043148,-12.046077],[-77.043093,-12.045958],[-77.043049,-12.04584],[-77.043049,-12.045751],[-77.043104,-12.045041],[-77.04317,-12.044233],[-77.043203,-12.044026],[-77.043224,-12.043956],[-77.043279,-12.043897],[-77.043367,-12.043789],[-77.043422,-12.043769],[-77.04351,-12.043651],[-77.043576,-12.043493],[-77.043587,-12.043345],[-77.043554,-12.043108],[-77.043477,-12.043079],[-77.043422,-12.04303],[-77.043389,-12.04301],[-77.043356,-12.04298],[-77.043334,-12.042951],[-77.043312,-12.042911],[-77.043292,-12.042839],[-77.043349,-12.042439],[-77.043383,-12.041989],[-77.043407,-12.041658],[-77.043433,-12.041274],[-77.043488,-12.040791],[-77.043536,-12.040144],[-77.043593,-12.039572],[-77.043731,-12.039254],[-77.044178,-12.039289],[-77.044589,-12.039349],[-77.044963,-12.039266],[-77.04564,-12.03914],[-77.046232,-12.038785],[-77.04657,-12.03849],[-77.046775,-12.0381],[-77.047029,-12.037852],[-77.047416,-12.037391],[-77.047853,-12.036682],[-77.048168,-12.036493],[-77.048349,-12.03634],[-77.048651,-12.036245],[-77.049032,-12.036212],[-77.049692,-12.036221],[-77.050228,-12.036343],[-77.050753,-12.036446],[-77.051635,-12.036871],[-77.052372,-12.037096],[-77.053169,-12.037179],[-77.053516,-12.037223],[-77.053891,-12.037179],[-77.054079,-12.037223],[-77.054096,-12.037418],[-77.052658,-12.037556],[-77.052076,-12.037616],[-77.052087,-12.037911],[-77.052383,-12.037921],[-77.052449,-12.037931],[-77.052669,-12.037961],[-77.052768,-12.037961],[-77.053119,-12.037921],[-77.053481,-12.037852],[-77.053536,-12.038168],[-77.053624,-12.038681],[-77.054239,-12.038543],[-77.054437,-12.038473],[-77.0547,-12.0387],[-77.054711,-12.03874],[-77.054733,-12.038769],[-77.054821,-12.038829],[-77.055326,-12.038976],[-77.055326,-12.039065],[-77.05537,-12.039479],[-77.055416,-12.040031]]]},"properties":{"id":"4","EESS":"C.S. CONDE DE LA VEGA BAJA","RIS":"RIS 1","COD_EESS":"000006186","DISTRITO":"LIMA","UBIGEO":150101}},{"type":"Feature","geometry":{"type":"Polygon","coordinates":[[[-77.019438,-12.0444],[-77.023095,-12.043996],[-77.024511,-12.043848],[-77.024973,-12.044765],[-77.025961,-12.046708],[-77.027103,-12.048858],[-77.027652,-12.049854],[-77.028706,-12.051905],[-77.029376,-12.053138],[-77.030079,-12.054528],[-77.030178,-12.054696],[-77.030152,-12.054863],[-77.030233,-12.054992],[-77.030233,-12.055238],[-77.030057,-12.056747],[-77.029772,-12.058877],[-77.026722,-12.058491],[-77.021787,-12.057788],[-77.01745,-12.057309],[-77.016545,-12.057149],[-77.014869,-12.05654],[-77.013796,-12.055154],[-77.013638,-12.054981],[-77.01309,-12.054311],[-77.012475,-12.053571],[-77.012486,-12.053433],[-77.0123,-12.053276],[-77.011827,-12.051846],[-77.011805,-12.05153],[-77.013013,-12.051629],[-77.012948,-12.050524],[-77.012882,-12.049528],[-77.014661,-12.049696],[-77.014782,-12.050662],[-77.014836,-12.050712],[-77.014984,-12.05078],[-77.015726,-12.050702],[-77.016107,-12.050667],[-77.01664,-12.050601],[-77.01719,-12.048684],[-77.017516,-12.047043],[-77.017911,-12.04515],[-77.017834,-12.045031],[-77.017099,-12.044952],[-77.016945,-12.044854],[-77.015715,-12.04372],[-77.015704,-12.043621],[-77.015671,-12.043375],[-77.015836,-12.043434],[-77.016209,-12.043671],[-77.016572,-12.043838],[-77.017955,-12.044331],[-77.018867,-12.04443],[-77.019438,-12.0444]]]},"properties":{"id":"5","EESS":"C.S. JUAN PEREZ CARRANZA","RIS":"RIS 1","COD_EESS":"000006171","DISTRITO":"LIMA","UBIGEO":150101}},{"type":"Feature","geometry":{"type":"Polygon","coordinates":[[[-77.064815,-12.048483],[-77.063662,-12.048374],[-77.062651,-12.048266],[-77.060916,-12.048088],[-77.059752,-12.04799],[-77.05984,-12.046974],[-77.060016,-12.0451],[-77.059994,-12.044913],[-77.058796,-12.044817],[-77.058992,-12.042796],[-77.059182,-12.040681],[-77.059219,-12.040237],[-77.059238,-12.039871],[-77.059262,-12.0395],[-77.059288,-12.039371],[-77.060249,-12.039225],[-77.061546,-12.039043],[-77.062963,-12.03886],[-77.064419,-12.038678],[-77.065864,-12.038477],[-77.065605,-12.040959],[-77.065496,-12.042053],[-77.065375,-12.043099],[-77.065271,-12.044058],[-77.065188,-12.044982],[-77.065177,-12.045041],[-77.065144,-12.0451],[-77.065067,-12.045179],[-77.064925,-12.045278],[-77.064848,-12.045367],[-77.064815,-12.045465],[-77.064826,-12.045524],[-77.06487,-12.045663],[-77.06499,-12.045741],[-77.065023,-12.04582],[-77.065045,-12.04586],[-77.065067,-12.045958],[-77.065067,-12.046126],[-77.065045,-12.046274],[-77.065034,-12.046432],[-77.06499,-12.046826],[-77.064815,-12.048483]]]},"properties":{"id":"7","EESS":"P.S. RESCATE","RIS":"RIS 1","COD_EESS":"000006188","DISTRITO":"LIMA","UBIGEO":150101}},{"type":"Feature","geometry":{"type":"Polygon","coordinates":[[[-77.065913,-12.038227],[-77.063409,-12.038572],[-77.061575,-12.038829],[-77.060005,-12.039065],[-77.059115,-12.039193],[-77.05794,-12.039361],[-77.0576,-12.0394],[-77.05727,-12.03945],[-77.056996,-12.039479],[-77.056941,-12.039489],[-77.056644,-12.039519],[-77.056589,-12.039529],[-77.056567,-12.039548],[-77.055799,-12.039677],[-77.055469,-12.039726],[-77.055403,-12.039124],[-77.055392,-12.039055],[-77.055392,-12.038976],[-77.055392,-12.038907],[-77.055326,-12.038907],[-77.054843,-12.038759],[-77.054777,-12.03871],[-77.054733,-12.038651],[-77.054514,-12.038464],[-77.054426,-12.038414],[-77.054217,-12.038483],[-77.053679,-12.038602],[-77.053536,-12.037842],[-77.053558,-12.037832],[-77.053558,-12.037813],[-77.053547,-12.037793],[-77.053503,-12.037793],[-77.05346,-12.037783],[-77.053317,-12.037813],[-77.05291,-12.037872],[-77.052757,-12.037902],[-77.05268,-12.037902],[-77.052625,-12.037892],[-77.052427,-12.037852],[-77.052153,-12.037852],[-77.052142,-12.037685],[-77.054085,-12.037477],[-77.054162,-12.037468],[-77.05414,-12.037122],[-77.054436,-12.037127],[-77.054935,-12.037072],[-77.05531,-12.037031],[-77.055819,-12.037005],[-77.056069,-12.036978],[-77.056194,-12.036996],[-77.056747,-12.036961],[-77.057158,-12.036926],[-77.057354,-12.0369],[-77.057551,-12.03683],[-77.057765,-12.03676],[-77.058042,-12.036769],[-77.058443,-12.036653],[-77.059148,-12.036496],[-77.05973,-12.03804],[-77.060027,-12.037931],[-77.060719,-12.037694],[-77.061905,-12.037211],[-77.061981,-12.037477],[-77.063069,-12.03729],[-77.064057,-12.037142],[-77.064244,-12.037162],[-77.06431,-12.037162],[-77.064408,-12.037142],[-77.064452,-12.037122],[-77.064496,-12.037093],[-77.064573,-12.036984],[-77.064628,-12.036925],[-77.064661,-12.036915],[-77.064815,-12.036896],[-77.065067,-12.036906],[-77.065155,-12.036876],[-77.06521,-12.036827],[-77.065748,-12.036994],[-77.065979,-12.037014],[-77.065924,-12.037961],[-77.065913,-12.038227]]]},"properties":{"id":"8","EESS":"C.S. VILLA MARIA PERPETUO SOCORRO","RIS":"RIS 1","COD_EESS":"000006194","DISTRITO":"LIMA","UBIGEO":150101}},{"type":"Feature","geometry":{"type":"Polygon","coordinates":[[[-77.087119,-12.061401],[-77.085252,-12.061165],[-77.083956,-12.060997],[-77.08288,-12.060839],[-77.081979,-12.060731],[-77.08053,-12.060415],[-77.078992,-12.06006],[-77.077367,-12.059656],[-77.075796,-12.059248],[-77.075994,-12.058088],[-77.076016,-12.057279],[-77.075742,-12.056264],[-77.075291,-12.055149],[-77.074523,-12.053069],[-77.074119,-12.051709],[-77.074091,-12.051052],[-77.074149,-12.049814],[-77.074182,-12.049321],[-77.072286,-12.04913],[-77.072465,-12.047673],[-77.072586,-12.046249],[-77.074561,-12.04643],[-77.076544,-12.046628],[-77.077887,-12.046757],[-77.07789,-12.049401],[-77.078167,-12.050023],[-77.081638,-12.050726],[-77.082715,-12.050988],[-77.085241,-12.051402],[-77.087668,-12.051826],[-77.087931,-12.054479],[-77.088239,-12.057309],[-77.088448,-12.058838],[-77.087931,-12.059488],[-77.088239,-12.060031],[-77.088151,-12.06083],[-77.087492,-12.061342],[-77.087119,-12.061401]]]},"properties":{"id":"9","EESS":"C.S. UNIDAD VECINAL N° 3","RIS":"RIS 1","COD_EESS":"000006193","DISTRITO":"LIMA","UBIGEO":150101}},{"type":"Feature","geometry":{"type":"Polygon","coordinates":[[[-77.017066,-12.045012],[-77.017802,-12.045091],[-77.017406,-12.047004],[-77.01722,-12.04798],[-77.01722,-12.048088],[-77.017073,-12.04868],[-77.016965,-12.049024],[-77.01689,-12.0494],[-77.016686,-12.049997],[-77.016565,-12.050535],[-77.015649,-12.050633],[-77.015375,-12.050662],[-77.015034,-12.050672],[-77.014869,-12.050652],[-77.014847,-12.050633],[-77.014749,-12.049824],[-77.014727,-12.049637],[-77.014661,-12.049637],[-77.013727,-12.049529],[-77.012772,-12.049449],[-77.012871,-12.051076],[-77.012904,-12.05156],[-77.011794,-12.051471],[-77.011729,-12.051471],[-77.011751,-12.051747],[-77.011696,-12.051658],[-77.011487,-12.050968],[-77.011169,-12.049696],[-77.011103,-12.049361],[-77.011037,-12.048532],[-77.010971,-12.047457],[-77.010982,-12.047014],[-77.011026,-12.046382],[-77.01107,-12.045919],[-77.011059,-12.04585],[-77.010949,-12.045732],[-77.010795,-12.044775],[-77.010806,-12.044519],[-77.010927,-12.043809],[-77.010927,-12.043621],[-77.006925,-12.042448],[-77.006968,-12.042999],[-77.007175,-12.043574],[-77.007463,-12.044418],[-77.008282,-12.044672],[-77.0093,-12.044578],[-77.009227,-12.046955],[-77.008527,-12.046538],[-77.008141,-12.047307],[-77.008373,-12.047578],[-77.007925,-12.048447],[-77.006776,-12.049538],[-77.004987,-12.048097],[-77.003095,-12.046964],[-77.005359,-12.039815],[-77.005623,-12.038917],[-77.005678,-12.038552],[-77.008744,-12.034248],[-77.011157,-12.036166],[-77.012557,-12.037124],[-77.013042,-12.039382],[-77.013251,-12.040265],[-77.013404,-12.040759],[-77.013622,-12.041174],[-77.013834,-12.041508],[-77.014039,-12.041808],[-77.014415,-12.042289],[-77.015037,-12.042924],[-77.015265,-12.043148],[-77.015616,-12.043404],[-77.015649,-12.043749],[-77.016901,-12.044883],[-77.017066,-12.045012]]]},"properties":{"id":"11","EESS":"P.S. JARDIN ROSA DE SANTA MARIA","RIS":"RIS 1","COD_EESS":"000006172","DISTRITO":"LIMA","UBIGEO":150101}},{"type":"Feature","geometry":{"type":"Polygon","coordinates":[[[-77.075734,-12.038529],[-77.077645,-12.03872],[-77.079416,-12.038914],[-77.083091,-12.039291],[-77.082985,-12.041086],[-77.082902,-12.042283],[-77.082647,-12.044963],[-77.081666,-12.044906],[-77.081561,-12.045873],[-77.08149,-12.046839],[-77.076598,-12.046392],[-77.074989,-12.046256],[-77.073392,-12.046116],[-77.072326,-12.046018],[-77.072304,-12.046225],[-77.072107,-12.048296],[-77.07203,-12.049114],[-77.06912,-12.048838],[-77.065342,-12.048483],[-77.065095,-12.048486],[-77.065186,-12.047592],[-77.065326,-12.045788],[-77.065452,-12.045722],[-77.065561,-12.045672],[-77.065748,-12.045633],[-77.065792,-12.045446],[-77.065671,-12.045386],[-77.065551,-12.045308],[-77.065474,-12.045219],[-77.06543,-12.04513],[-77.065397,-12.045041],[-77.065375,-12.044923],[-77.065386,-12.044765],[-77.065504,-12.043858],[-77.0656,-12.042944],[-77.065842,-12.040728],[-77.066096,-12.038403],[-77.066562,-12.038332],[-77.067059,-12.038281],[-77.067968,-12.038156],[-77.06898,-12.038021],[-77.069942,-12.037962],[-77.070724,-12.037986],[-77.071502,-12.03806],[-77.072233,-12.038139],[-77.072953,-12.038225],[-77.073738,-12.038291],[-77.075734,-12.038529]]]},"properties":{"id":"10","EESS":"P.S. PALERMO","RIS":"RIS 1","COD_EESS":"000006189","DISTRITO":"LIMA","UBIGEO":150101}},{"type":"Feature","geometry":null,"properties":{"id":"68-14","EESS":"C.S. SAN MIGUEL","RIS":"RIS 2","COD_EESS":"000006198","DISTRITO":["PUEBLO LIBRE","SAN MIGUEL"],"UBIGEO":[150121,150136]}}]}