{
"type": "FeatureCollection",
"name": "DIRISLC",
"features": [
{
    "type": "Feature",
    "properties": {
      "id": "65-1",
      "EESS": "C.S. MIRONES",
      "RIS": "RIS 1",
      "COD_EESS": "000006192",
      "DISTRITO": ["PUEBLO LIBRE", "LIMA"],
      "UBIGEO": [150121, 150101]
    },
    "geometry": {
      "type": "MultiPolygon",
      "coordinates": [
        [ 
            [
                [ -77.0777074, -12.0686596 ], [ -77.0778612, -12.0703262 ], [ -77.0753024, -12.0708785 ], [ -77.0727546, -12.0714603 ], [ -77.0716345, -12.071697 ], [ -77.0707779, -12.0718646 ], [ -77.0688122, -12.0721407 ], [ -77.0673736, -12.0722985 ], [ -77.0667586, -12.0723084 ], [ -77.0656823, -12.0722393 ], [ -77.0642877, -12.0720224 ], [ -77.0637386, -12.0719435 ], [ -77.0623329, -12.0716082 ], [ -77.0617179, -12.0714603 ], [ -77.0613775, -12.0682652 ], [ -77.0617179, -12.0679989 ], [ -77.0619156, -12.0675255 ], [ -77.0748961, -12.0679101 ], [ -77.0777074, -12.0686596 ]
            ]
        ],
        [ 
            [
                [ -77.0619156, -12.0675255 ], [ -77.0619485, -12.0674664 ], [ -77.0618277, -12.0670916 ], [ -77.0615751, -12.0668451 ], [ -77.0612237, -12.0667465 ], [ -77.0610261, -12.0667563 ], [ -77.0603232, -12.0647545 ], [ -77.0596204, -12.0626934 ], [ -77.0588626, -12.0603168 ], [ -77.058643, -12.0592912 ], [ -77.0585991, -12.058877 ], [ -77.0583794, -12.0581472 ], [ -77.0582916, -12.0577922 ], [ -77.0579511, -12.0565398 ], [ -77.0576766, -12.055386 ], [ -77.05682, -12.0542717 ], [ -77.0564686, -12.0537786 ], [ -77.0554802, -12.0526051 ], [ -77.0548653, -12.0513921 ], [ -77.0538879, -12.0491536 ], [ -77.0540306, -12.0475461 ], [ -77.0739517, -12.0497551 ], [ -77.0738309, -12.0512738 ], [ -77.0741493, -12.0526347 ], [ -77.0753354, -12.0558791 ], [ -77.0757417, -12.0569737 ], [ -77.0758845, -12.0572893 ], [ -77.0757197, -12.0584628 ], [ -77.075533, -12.059163 ], [ -77.0754562, -12.0595969 ], [ -77.0782236, -12.0601491 ], [ -77.078575, -12.0604351 ], [ -77.0788276, -12.0609676 ], [ -77.0787946, -12.0614311 ], [ -77.0782346, -12.0635514 ], [ -77.0778941, -12.0653166 ], [ -77.0776635, -12.0681567 ], [ -77.0777074, -12.0686596 ], [ -77.0748961, -12.0679101 ], [ -77.0619156, -12.0675255 ] 
        
            ]
        ]
      ]
    }
  },
{ "type": "Feature", "properties": { "id": "2", "EESS": "C.S. SAN SEBASTIAN", "RIS": "RIS 1", "COD_EESS": "000006191", "DISTRITO": "LIMA", "UBIGEO": 150101 }, "geometry": { "type": "Polygon", "coordinates": [ [ [ -77.0416431, -12.0389272 ], [ -77.0432355, -12.0390455 ], [ -77.0431476, -12.0400218 ], [ -77.0429829, -12.0417278 ], [ -77.0428951, -12.0428027 ], [ -77.0427962, -12.0428915 ], [ -77.0425986, -12.0429605 ], [ -77.0424668, -12.0431183 ], [ -77.0423899, -12.0433846 ], [ -77.0424668, -12.0436311 ], [ -77.0427413, -12.0438678 ], [ -77.0427633, -12.0439861 ], [ -77.0427633, -12.0441636 ], [ -77.0426535, -12.0449821 ], [ -77.0425986, -12.0458006 ], [ -77.0425656, -12.0459288 ], [ -77.0424448, -12.0459979 ], [ -77.0423899, -12.0460669 ], [ -77.0422581, -12.0463036 ], [ -77.0422801, -12.0465205 ], [ -77.0424228, -12.0467769 ], [ -77.0424997, -12.0468657 ], [ -77.0424558, -12.0476645 ], [ -77.0422911, -12.0495184 ], [ -77.0422471, -12.0498241 ], [ -77.0422252, -12.0501003 ], [ -77.0422581, -12.0501791 ], [ -77.0422032, -12.0509582 ], [ -77.0420495, -12.0524473 ], [ -77.0418738, -12.0544985 ], [ -77.04172, -12.0562736 ], [ -77.0415443, -12.0582952 ], [ -77.0414455, -12.0594687 ], [ -77.0413796, -12.0596758 ], [ -77.0411709, -12.0597645 ], [ -77.0409732, -12.0600209 ], [ -77.0409293, -12.0600505 ], [ -77.0392601, -12.0598927 ], [ -77.0377775, -12.0597744 ], [ -77.0367892, -12.0596659 ], [ -77.0366464, -12.0596265 ], [ -77.0362511, -12.0593997 ], [ -77.0361412, -12.0593208 ], [ -77.0359106, -12.0592221 ], [ -77.0357788, -12.0592024 ], [ -77.035658, -12.0592221 ], [ -77.0355372, -12.0592715 ], [ -77.0353835, -12.0594983 ], [ -77.0351858, -12.0595673 ], [ -77.0346257, -12.0594983 ], [ -77.0330334, -12.0592912 ], [ -77.0300134, -12.0589164 ], [ -77.0302879, -12.0567469 ], [ -77.0305076, -12.0551987 ], [ -77.0304746, -12.0548732 ], [ -77.0303758, -12.0545281 ], [ -77.0288822, -12.0515795 ], [ -77.0267847, -12.0475954 ], [ -77.0247311, -12.0438283 ], [ -77.0263345, -12.043641 ], [ -77.0268396, -12.0435917 ], [ -77.0274326, -12.043641 ], [ -77.0282014, -12.0437001 ], [ -77.0287285, -12.0437494 ], [ -77.0293545, -12.0437199 ], [ -77.030826, -12.0430986 ], [ -77.0330444, -12.042073 ], [ -77.0339339, -12.0415996 ], [ -77.0349113, -12.0412545 ], [ -77.0351199, -12.0411361 ], [ -77.0370088, -12.0402881 ], [ -77.0379862, -12.0397753 ], [ -77.0391503, -12.0393216 ], [ -77.0394028, -12.0392427 ], [ -77.0398421, -12.0390554 ], [ -77.0416431, -12.0389272 ] ] ] } },
{ "type": "Feature", "properties": { "id": "3", "EESS": "C.S. MIRONES BAJO", "RIS": "RIS 1", "COD_EESS": "000006187", "DISTRITO": "LIMA", "UBIGEO": 150101 }, "geometry": { "type": "Polygon", "coordinates": [ [ [ -77.0814083, -12.0361758 ], [ -77.0816829, -12.0362153 ], [ -77.0819355, -12.036235 ], [ -77.0820672, -12.036235 ], [ -77.0828909, -12.0364125 ], [ -77.082836, -12.0369746 ], [ -77.0828579, -12.0370239 ], [ -77.082792, -12.0376156 ], [ -77.0826603, -12.0386905 ], [ -77.0826163, -12.0390159 ], [ -77.081628, -12.0389272 ], [ -77.0798818, -12.0387398 ], [ -77.0773011, -12.0384637 ], [ -77.0750169, -12.038227 ], [ -77.0702178, -12.0377438 ], [ -77.068933, -12.037803 ], [ -77.0679007, -12.0379312 ], [ -77.0668135, -12.0380988 ], [ -77.0660997, -12.0381974 ], [ -77.0661875, -12.0367478 ], [ -77.0662314, -12.03588 ], [ -77.0661436, -12.0357813 ], [ -77.0661106, -12.0356827 ], [ -77.0660008, -12.0354658 ], [ -77.0657482, -12.0350417 ], [ -77.0662314, -12.0349727 ], [ -77.0665829, -12.0349431 ], [ -77.0669233, -12.0349333 ], [ -77.0672308, -12.0348839 ], [ -77.0675383, -12.0349135 ], [ -77.0677689, -12.0349431 ], [ -77.0679117, -12.0349234 ], [ -77.0680654, -12.0348839 ], [ -77.0683509, -12.0348149 ], [ -77.0686694, -12.0347755 ], [ -77.0692405, -12.0346078 ], [ -77.0696248, -12.0344599 ], [ -77.0698115, -12.0344205 ], [ -77.0699433, -12.0344205 ], [ -77.070152, -12.0344106 ], [ -77.0702837, -12.0344698 ], [ -77.0705473, -12.0345092 ], [ -77.0708438, -12.0344895 ], [ -77.071338, -12.0345092 ], [ -77.0718761, -12.0345388 ], [ -77.0723264, -12.0345684 ], [ -77.0726448, -12.0345388 ], [ -77.0728096, -12.0345388 ], [ -77.0733037, -12.0346769 ], [ -77.0735344, -12.0347459 ], [ -77.0741384, -12.0348445 ], [ -77.0744568, -12.0348839 ], [ -77.0747424, -12.0349135 ], [ -77.0751157, -12.0349333 ], [ -77.0762249, -12.0351108 ], [ -77.0768728, -12.0352291 ], [ -77.0771474, -12.0352685 ], [ -77.0775537, -12.0353672 ], [ -77.0777404, -12.0354658 ], [ -77.0780149, -12.0356137 ], [ -77.0783773, -12.0356236 ], [ -77.0786409, -12.0356433 ], [ -77.079168, -12.0357518 ], [ -77.0792998, -12.0357518 ], [ -77.0794645, -12.0357025 ], [ -77.0797501, -12.0357025 ], [ -77.0801784, -12.0357813 ], [ -77.0804419, -12.0358602 ], [ -77.0807933, -12.0359983 ], [ -77.0809251, -12.0360377 ], [ -77.08098, -12.0360082 ], [ -77.0811228, -12.0360575 ], [ -77.0811997, -12.0361364 ], [ -77.0812985, -12.0361364 ], [ -77.0814083, -12.0361758 ] ] ] } },
{ "type": "Feature",   "properties": { "id": "4", "EESS": "C.S. CONDE DE LA VEGA BAJA", "RIS": "RIS 1", "COD_EESS": "000006186", "DISTRITO": "LIMA", "UBIGEO": 150101 }, "geometry": { "type": "Polygon", "coordinates": [ [ [ -77.0554143, -12.0398048 ], [ -77.0560623, -12.0396964 ], [ -77.0565455, -12.0396175 ], [ -77.0566553, -12.0396273 ], [ -77.0578194, -12.0394794 ], [ -77.0591372, -12.039292 ], [ -77.0591591, -12.0395287 ], [ -77.0590713, -12.040574 ], [ -77.058654, -12.0447849 ], [ -77.058632, -12.0449723 ], [ -77.0599608, -12.0451005 ], [ -77.0597741, -12.0470333 ], [ -77.0596863, -12.0479899 ], [ -77.0570616, -12.0477138 ], [ -77.0550849, -12.0474968 ], [ -77.0544919, -12.0474376 ], [ -77.0538439, -12.0473785 ], [ -77.053822, -12.0475757 ], [ -77.0537561, -12.0483153 ], [ -77.0536792, -12.048976 ], [ -77.052603, -12.0491536 ], [ -77.052021, -12.0492522 ], [ -77.0504725, -12.0495381 ], [ -77.0490229, -12.0498537 ], [ -77.0472878, -12.0502482 ], [ -77.0467716, -12.0503468 ], [ -77.0466618, -12.0503862 ], [ -77.0458492, -12.050544 ], [ -77.0454099, -12.0506032 ], [ -77.0445753, -12.0506426 ], [ -77.0429719, -12.0507314 ], [ -77.0427633, -12.0507511 ], [ -77.0425766, -12.0507511 ], [ -77.0425986, -12.0504355 ], [ -77.0426974, -12.0496072 ], [ -77.0427303, -12.0490451 ], [ -77.0427962, -12.0484139 ], [ -77.0428731, -12.0475757 ], [ -77.0428951, -12.04727 ], [ -77.0428951, -12.0470925 ], [ -77.042928, -12.0469051 ], [ -77.0430927, -12.0467473 ], [ -77.0431916, -12.0466389 ], [ -77.0432465, -12.0464712 ], [ -77.0432575, -12.0464219 ], [ -77.0432575, -12.0463726 ], [ -77.0432465, -12.0462444 ], [ -77.0432245, -12.0461852 ], [ -77.0431916, -12.0461261 ], [ -77.0431476, -12.0460768 ], [ -77.0430927, -12.0459584 ], [ -77.0430488, -12.0458401 ], [ -77.0430488, -12.0457513 ], [ -77.0431037, -12.0450413 ], [ -77.0431696, -12.0442327 ], [ -77.0432026, -12.0440256 ], [ -77.0432245, -12.0439565 ], [ -77.0432794, -12.0438974 ], [ -77.0433673, -12.0437889 ], [ -77.0434222, -12.0437692 ], [ -77.04351, -12.0436508 ], [ -77.0435759, -12.043493 ], [ -77.0435869, -12.0433451 ], [ -77.043554, -12.0431084 ], [ -77.0434771, -12.0430789 ], [ -77.0434222, -12.0430296 ], [ -77.0433892, -12.0430098 ], [ -77.0433563, -12.0429802 ], [ -77.0433343, -12.0429507 ], [ -77.0433124, -12.0429112 ], [ -77.0432794, -12.0428422 ], [ -77.0433563, -12.0419744 ], [ -77.0433892, -12.0416785 ], [ -77.0434332, -12.0412742 ], [ -77.0434881, -12.040791 ], [ -77.0434991, -12.04015 ], [ -77.0436089, -12.0390159 ], [ -77.0442898, -12.0390258 ], [ -77.0445972, -12.0390159 ], [ -77.0450585, -12.0389765 ], [ -77.0455417, -12.038868 ], [ -77.045981, -12.0385623 ], [ -77.0462335, -12.038227 ], [ -77.0463653, -12.0379016 ], [ -77.046585, -12.0375663 ], [ -77.0470023, -12.0370042 ], [ -77.0474635, -12.0364717 ], [ -77.0476502, -12.0361758 ], [ -77.0481114, -12.0357813 ], [ -77.0485617, -12.0357419 ], [ -77.0491986, -12.0358109 ], [ -77.0498466, -12.0358898 ], [ -77.0504615, -12.0360279 ], [ -77.0511534, -12.0361758 ], [ -77.0518233, -12.0365308 ], [ -77.052592, -12.0369253 ], [ -77.0533278, -12.0369253 ], [ -77.0540306, -12.0367872 ], [ -77.0540746, -12.0371225 ], [ -77.0540965, -12.0374184 ], [ -77.0526579, -12.0375564 ], [ -77.0520759, -12.0376156 ], [ -77.0520868, -12.0379114 ], [ -77.0523834, -12.0379213 ], [ -77.0524492, -12.0379312 ], [ -77.0526689, -12.0379607 ], [ -77.0527677, -12.0379607 ], [ -77.0531191, -12.0379213 ], [ -77.0534815, -12.0378523 ], [ -77.0535364, -12.0381678 ], [ -77.0536243, -12.0386806 ], [ -77.0542393, -12.0385426 ], [ -77.054437, -12.0384735 ], [ -77.0547005, -12.0387004 ], [ -77.0547115, -12.0387398 ], [ -77.0547335, -12.0387694 ], [ -77.0548213, -12.0388286 ], [ -77.0553265, -12.0389765 ], [ -77.0553265, -12.0390652 ], [ -77.0553704, -12.0394794 ], [ -77.0554143, -12.0398048 ] ] ] } },
{ "type": "Feature", "properties": { "id": "5", "EESS": "C.S. JUAN PEREZ CARRANZA", "RIS": "RIS 1", "COD_EESS": "000006171", "DISTRITO": "LIMA", "UBIGEO": 150101 }, "geometry": { "type": "Polygon", "coordinates": [ [ [ -77.0194379, -12.0444003 ], [ -77.0230948, -12.043996 ], [ -77.0245115, -12.0438481 ], [ -77.0249727, -12.0447652 ], [ -77.0259611, -12.0467079 ], [ -77.0271032, -12.0488577 ], [ -77.0276523, -12.0498537 ], [ -77.0287065, -12.0519049 ], [ -77.0293764, -12.0531376 ], [ -77.0300793, -12.0545281 ], [ -77.0301781, -12.0546957 ], [ -77.030233, -12.0549916 ], [ -77.030233, -12.0552381 ], [ -77.0300573, -12.0567469 ], [ -77.0297718, -12.058877 ], [ -77.0267298, -12.0584727 ], [ -77.021777, -12.0578317 ], [ -77.0174502, -12.057309 ], [ -77.0164948, -12.0571808 ], [ -77.0148694, -12.0565398 ], [ -77.0137493, -12.0551592 ], [ -77.0135955, -12.0550211 ], [ -77.0130904, -12.0543111 ], [ -77.0124754, -12.0535715 ], [ -77.0124864, -12.0534334 ], [ -77.0122997, -12.0532757 ], [ -77.0118275, -12.0518457 ], [ -77.0118055, -12.0515302 ], [ -77.0130135, -12.0516288 ], [ -77.0129476, -12.0505243 ], [ -77.0128817, -12.0495283 ], [ -77.0146608, -12.0496959 ], [ -77.0147816, -12.0506624 ], [ -77.0148365, -12.0507117 ], [ -77.0150012, -12.0507314 ], [ -77.015726, -12.0507018 ], [ -77.0160884, -12.0506426 ], [ -77.0165936, -12.0506229 ], [ -77.0171537, -12.0486802 ], [ -77.0175161, -12.0470432 ], [ -77.0179114, -12.0451498 ], [ -77.0178345, -12.0450314 ], [ -77.0170988, -12.0449525 ], [ -77.016945, -12.0448539 ], [ -77.015715, -12.0437199 ], [ -77.0157041, -12.0436212 ], [ -77.0156711, -12.0433747 ], [ -77.0158358, -12.0434339 ], [ -77.0162092, -12.0436706 ], [ -77.0165716, -12.0438382 ], [ -77.0179553, -12.0443313 ], [ -77.0188668, -12.0444299 ], [ -77.0194379, -12.0444003 ] ] ] } },
{ "type": "Feature", "properties": { "id": "6", "EESS": "P.S. SANTA ROSA", "RIS": "RIS 1", "COD_EESS": "000006190", "DISTRITO": "LIMA", "UBIGEO": 150101 }, "geometry": { "type": "Polygon", "coordinates": [ [ [ -77.0641559, -12.0351206 ], [ -77.0654407, -12.0351206 ], [ -77.0655286, -12.035091 ], [ -77.065869, -12.0356729 ], [ -77.0659569, -12.0358405 ], [ -77.0659898, -12.0359687 ], [ -77.0660008, -12.036373 ], [ -77.0659898, -12.0369549 ], [ -77.0657592, -12.0369351 ], [ -77.0652321, -12.0367576 ], [ -77.0651662, -12.0367774 ], [ -77.0651333, -12.0368168 ], [ -77.0650564, -12.0368464 ], [ -77.0648038, -12.0368365 ], [ -77.064672, -12.0368464 ], [ -77.0645842, -12.036876 ], [ -77.0644414, -12.0370633 ], [ -77.0643645, -12.0370929 ], [ -77.0642986, -12.0371028 ], [ -77.0642547, -12.0371127 ], [ -77.064079, -12.0370732 ], [ -77.0640131, -12.0370732 ], [ -77.0631236, -12.0372113 ], [ -77.0620254, -12.0374184 ], [ -77.0619595, -12.0371718 ], [ -77.0618058, -12.0371817 ], [ -77.0611139, -12.0374775 ], [ -77.0606307, -12.0376649 ], [ -77.0597631, -12.0379607 ], [ -77.0591921, -12.0364421 ], [ -77.0590383, -12.0359884 ], [ -77.0594886, -12.0359293 ], [ -77.0595874, -12.035949 ], [ -77.0602793, -12.0357912 ], [ -77.0608394, -12.0356433 ], [ -77.06107, -12.0356236 ], [ -77.0612677, -12.0355545 ], [ -77.0614214, -12.0355052 ], [ -77.0619266, -12.0353869 ], [ -77.0626514, -12.0352784 ], [ -77.0630467, -12.0352291 ], [ -77.0637056, -12.0351699 ], [ -77.0641559, -12.0351206 ] ] ] } },
{ "type": "Feature", "properties": { "id": "7", "EESS": "P.S. RESCATE", "RIS": "RIS 1", "COD_EESS": "000006188", "DISTRITO": "LIMA", "UBIGEO": 150101 }, "geometry": { "type": "Polygon", "coordinates": [ [ [ -77.0648148, -12.048483 ], [ -77.0636617, -12.0483745 ], [ -77.0626514, -12.048266 ], [ -77.0609162, -12.0480885 ], [ -77.0597522, -12.0479899 ], [ -77.05984, -12.0469742 ], [ -77.0600157, -12.0451005 ], [ -77.0599938, -12.0449131 ], [ -77.0587199, -12.0447948 ], [ -77.0591262, -12.0405839 ], [ -77.0591811, -12.0401599 ], [ -77.0592031, -12.039864 ], [ -77.059225, -12.039509 ], [ -77.0592031, -12.0392822 ], [ -77.0602463, -12.0391244 ], [ -77.0615312, -12.0389469 ], [ -77.0629698, -12.0387398 ], [ -77.065891, -12.0383355 ], [ -77.0656055, -12.0409586 ], [ -77.0654957, -12.0420533 ], [ -77.0653749, -12.0430986 ], [ -77.0651882, -12.0449821 ], [ -77.0651772, -12.0450413 ], [ -77.0651442, -12.0451005 ], [ -77.0650674, -12.0451794 ], [ -77.0649246, -12.045278 ], [ -77.0648477, -12.0453667 ], [ -77.0648148, -12.0454653 ], [ -77.0648258, -12.0455245 ], [ -77.0648697, -12.0456626 ], [ -77.0649905, -12.0457415 ], [ -77.0650234, -12.0458204 ], [ -77.0650454, -12.0458598 ], [ -77.0650674, -12.0459584 ], [ -77.0650674, -12.0461261 ], [ -77.0650454, -12.046274 ], [ -77.0650344, -12.0464318 ], [ -77.0649905, -12.0468262 ], [ -77.0648148, -12.048483 ] ] ] } },
{ "type": "Feature", "properties": { "id": "8", "EESS": "C.S. VILLA MARIA PERPETUO SOCORRO", "RIS": "RIS 1", "COD_EESS": "000006194", "DISTRITO": "LIMA", "UBIGEO": 150101 }, "geometry": { "type": "Polygon", "coordinates": [ [ [ -77.065913, -12.038227 ], [ -77.0634091, -12.0385722 ], [ -77.0615751, -12.0388286 ], [ -77.0600047, -12.0390652 ], [ -77.0591152, -12.0391934 ], [ -77.0579402, -12.0393611 ], [ -77.0575997, -12.0394005 ], [ -77.0572703, -12.0394498 ], [ -77.0569957, -12.0394794 ], [ -77.0569408, -12.0394893 ], [ -77.0566443, -12.0395189 ], [ -77.0565894, -12.0395287 ], [ -77.0565674, -12.0395484 ], [ -77.0557987, -12.0396766 ], [ -77.0554693, -12.0397259 ], [ -77.0554034, -12.0391244 ], [ -77.0553924, -12.0390554 ], [ -77.0553924, -12.0389765 ], [ -77.0553924, -12.0389074 ], [ -77.0553265, -12.0389074 ], [ -77.0548433, -12.0387595 ], [ -77.0547774, -12.0387102 ], [ -77.0547335, -12.038651 ], [ -77.0545138, -12.0384637 ], [ -77.054426, -12.0384144 ], [ -77.0542173, -12.0384834 ], [ -77.0536792, -12.0386017 ], [ -77.0535364, -12.0378424 ], [ -77.0535584, -12.0378325 ], [ -77.0535584, -12.0378128 ], [ -77.0535474, -12.0377931 ], [ -77.0535035, -12.0377931 ], [ -77.0534596, -12.0377832 ], [ -77.0533168, -12.0378128 ], [ -77.0529105, -12.037872 ], [ -77.0527567, -12.0379016 ], [ -77.0526799, -12.0379016 ], [ -77.052625, -12.0378917 ], [ -77.0524273, -12.0378523 ], [ -77.0521527, -12.0378523 ], [ -77.0521418, -12.0376846 ], [ -77.0540855, -12.0374775 ], [ -77.0541624, -12.0374677 ], [ -77.0541404, -12.0371225 ], [ -77.0540855, -12.0367576 ], [ -77.0546786, -12.0366097 ], [ -77.055041, -12.036521 ], [ -77.0552826, -12.0365012 ], [ -77.0558756, -12.0365407 ], [ -77.0565345, -12.0366097 ], [ -77.0569847, -12.0366097 ], [ -77.0572483, -12.0365801 ], [ -77.0574789, -12.0365012 ], [ -77.0578962, -12.0363139 ], [ -77.0580719, -12.0362547 ], [ -77.0585661, -12.0361659 ], [ -77.0589615, -12.036018 ], [ -77.0597302, -12.0380396 ], [ -77.0600267, -12.0379312 ], [ -77.0607186, -12.0376945 ], [ -77.0619046, -12.0372113 ], [ -77.0619815, -12.0374775 ], [ -77.0630687, -12.0372902 ], [ -77.064057, -12.0371422 ], [ -77.0642437, -12.037162 ], [ -77.0643096, -12.037162 ], [ -77.0644085, -12.0371422 ], [ -77.0644524, -12.0371225 ], [ -77.0644963, -12.0370929 ], [ -77.0645732, -12.0369845 ], [ -77.0646281, -12.0369253 ], [ -77.064661, -12.0369154 ], [ -77.0648148, -12.0368957 ], [ -77.0650674, -12.0369056 ], [ -77.0651552, -12.036876 ], [ -77.0652101, -12.0368267 ], [ -77.0657482, -12.0369943 ], [ -77.0659789, -12.037014 ], [ -77.0659239, -12.0379607 ], [ -77.065913, -12.038227 ] ] ] } },
{ "type": "Feature", "properties": { "id": "9", "EESS": "C.S. UNIDAD VECINAL N° 3", "RIS": "RIS 1", "COD_EESS": "000006193", "DISTRITO": "LIMA", "UBIGEO": 150101 }, "geometry": { "type": "Polygon", "coordinates": [ [ [ -77.0871189, -12.0614015 ], [ -77.085252, -12.0611649 ], [ -77.0839561, -12.0609972 ], [ -77.0828799, -12.0608394 ], [ -77.0819794, -12.060731 ], [ -77.0805298, -12.0604154 ], [ -77.0789923, -12.0600604 ], [ -77.077367, -12.0596561 ], [ -77.0757197, -12.0592715 ], [ -77.0759943, -12.0580881 ], [ -77.0760162, -12.0572794 ], [ -77.0757417, -12.0562637 ], [ -77.0752914, -12.0551493 ], [ -77.0745227, -12.0530686 ], [ -77.0740725, -12.0517175 ], [ -77.0740285, -12.0510568 ], [ -77.0741493, -12.0498143 ], [ -77.0741823, -12.0493212 ], [ -77.0722605, -12.0491437 ], [ -77.072557, -12.0462148 ], [ -77.0766093, -12.0465698 ], [ -77.0824626, -12.0470728 ], [ -77.0833851, -12.0471418 ], [ -77.0827152, -12.0509878 ], [ -77.085241, -12.051402 ], [ -77.087668, -12.051826 ], [ -77.0879315, -12.0544788 ], [ -77.088239, -12.057309 ], [ -77.0884477, -12.0588376 ], [ -77.0879315, -12.0594884 ], [ -77.088239, -12.0600308 ], [ -77.0881512, -12.0608296 ], [ -77.0874923, -12.0613424 ], [ -77.0871189, -12.0614015 ] ] ] } },
{ "type": "Feature", "properties": { "id": "10", "EESS": "P.S. PALERMO", "RIS": "RIS 1", "COD_EESS": "000006189", "DISTRITO": "LIMA", "UBIGEO": 150101 }, "geometry": { "type": "Polygon", "coordinates": [ [ [ -77.0757417, -12.0384144 ], [ -77.0772901, -12.0385722 ], [ -77.0771364, -12.0402387 ], [ -77.0769936, -12.0417278 ], [ -77.0768179, -12.0436607 ], [ -77.0765983, -12.0463923 ], [ -77.0733916, -12.0461162 ], [ -77.0723264, -12.0460176 ], [ -77.0723044, -12.0462247 ], [ -77.0721067, -12.0482956 ], [ -77.0720298, -12.0491141 ], [ -77.0691197, -12.048838 ], [ -77.0653419, -12.048483 ], [ -77.0650015, -12.0485027 ], [ -77.0650893, -12.0475856 ], [ -77.065287, -12.0457809 ], [ -77.0654517, -12.0457217 ], [ -77.0655615, -12.0456724 ], [ -77.0657482, -12.045633 ], [ -77.0657922, -12.0454456 ], [ -77.0656714, -12.0453865 ], [ -77.0655506, -12.0453076 ], [ -77.0654737, -12.0452188 ], [ -77.0654298, -12.0451301 ], [ -77.0653968, -12.0450413 ], [ -77.0653749, -12.044923 ], [ -77.0653858, -12.0447652 ], [ -77.0655835, -12.0429605 ], [ -77.0660997, -12.0383059 ], [ -77.0678568, -12.0380495 ], [ -77.068944, -12.0379016 ], [ -77.0702288, -12.0378523 ], [ -77.070723, -12.0378917 ], [ -77.073743, -12.0381974 ], [ -77.0757417, -12.0384144 ] ] ] } },
{ "type": "Feature", "properties": { "id": "11", "EESS": "P.S. JARDIN ROSA DE SANTA MARIA", "RIS": "RIS 1", "COD_EESS": "000006172", "DISTRITO": "LIMA", "UBIGEO": 150101 }, "geometry": { "type": "Polygon", "coordinates": [ [ [ -77.0170658, -12.0450117 ], [ -77.0178016, -12.0450906 ], [ -77.0174062, -12.0470037 ], [ -77.0172196, -12.04798 ], [ -77.0172196, -12.0480885 ], [ -77.0170988, -12.0486605 ], [ -77.0168901, -12.0494001 ], [ -77.0165716, -12.0505539 ], [ -77.0156491, -12.0506328 ], [ -77.0153746, -12.0506624 ], [ -77.0150342, -12.0506722 ], [ -77.0148694, -12.0506525 ], [ -77.0148475, -12.0506328 ], [ -77.0147486, -12.0498241 ], [ -77.0147267, -12.0496368 ], [ -77.0146608, -12.0496368 ], [ -77.0137054, -12.049548 ], [ -77.0127719, -12.0494494 ], [ -77.0128707, -12.0510765 ], [ -77.0129037, -12.0515598 ], [ -77.0117945, -12.051471 ], [ -77.0117286, -12.051471 ], [ -77.0117506, -12.0517471 ], [ -77.0116957, -12.0516584 ], [ -77.011487, -12.0509681 ], [ -77.0111686, -12.0496959 ], [ -77.0111027, -12.0493606 ], [ -77.0110368, -12.0485323 ], [ -77.0109709, -12.0474574 ], [ -77.0109819, -12.0470136 ], [ -77.0110258, -12.0463825 ], [ -77.0110697, -12.045919 ], [ -77.0110587, -12.0458499 ], [ -77.0109489, -12.0457316 ], [ -77.0107952, -12.044775 ], [ -77.0108062, -12.0445186 ], [ -77.010927, -12.0438086 ], [ -77.010927, -12.0436212 ], [ -77.0106414, -12.0435325 ], [ -77.0075885, -12.0425266 ], [ -77.004843, -12.0416095 ], [ -77.0053592, -12.0398147 ], [ -77.0056227, -12.0389173 ], [ -77.0056777, -12.0385524 ], [ -77.0057655, -12.0380594 ], [ -77.0079619, -12.0389765 ], [ -77.0093675, -12.0395682 ], [ -77.0109709, -12.0402486 ], [ -77.0113662, -12.0404261 ], [ -77.0117067, -12.0406233 ], [ -77.0123217, -12.0410178 ], [ -77.0126841, -12.0412841 ], [ -77.0131673, -12.0416588 ], [ -77.0141446, -12.0423787 ], [ -77.0150232, -12.0430394 ], [ -77.0152648, -12.0431479 ], [ -77.0156162, -12.0434043 ], [ -77.0156491, -12.0437494 ], [ -77.0169011, -12.0448835 ], [ -77.0170658, -12.0450117 ] ] ] } },




{ 
    "type": "Feature", 
    "properties": { 
        "id": "68-14",
        "EESS": "C.S. SAN MIGUEL", 
        "RIS": "RIS 2", 
        "COD_EESS": "000006198", 
        "DISTRITO": ["PUEBLO LIBRE", "SAN MIGUEL"],
        "UBIGEO": [150121, 150136] 
    },
    "geometry": { 
        "type": "MultiPolygon", 
        "coordinates": [ 
            [ 
                [
                    
                ] 
            ],
            [
                [   
                    
                ]
            ]
        ]
    }
  }
]}
