{"type":"FeatureCollection","name":"DIRISLC_DISTRITOS","features":[{"type":"Feature","properties":{"id":4,"DISTRITO":"PUEBLO LIBRE","DISTRITO2":null,"PROVINCIA":"LIMA","DEPARTAMENTO":"LIMA","FUENTE":"IGN"},"geometry":{"type":"Polygon","coordinates":[[[-77.063206,-12.086481],[-77.049736,-12.070172],[-77.054199,-12.066547],[-77.06117,-12.067525],[-77.065658,-12.067615],[-77.07773,-12.068547],[-77.078408,-12.073102],[-77.080211,-12.075582],[-77.080883,-12.077092],[-77.080707,-12.078309],[-77.0794,-12.078643],[-77.071422,-12.081592],[-77.072104,-12.083584],[-77.064382,-12.086331],[-77.063206,-12.086481]]]}},{"type":"Feature","properties":{"id":34,"DISTRITO":"LIMA","DISTRITO2":null,"PROVINCIA":"LIMA","DEPARTAMENTO":"LIMA","FUENTE":"IGN"},"geometry":{"type":"Polygon","coordinates":[[[-77.003156,-12.062617],[-77.006828,-12.059998],[-77.007318,-12.05874],[-77.010303,-12.056182],[-77.012264,-12.053623],[-77.011318,-12.050734],[-77.010885,-12.047422],[-77.010896,-12.043764],[-77.007395,-12.042586],[-77.007008,-12.042881],[-77.008086,-12.045871],[-77.008516,-12.046484],[-77.008379,-12.047654],[-77.006781,-12.049686],[-77.004783,-12.047961],[-77.002963,-12.046949],[-77.004742,-12.041656],[-77.005668,-12.038033],[-77.00875,-12.034344],[-77.007986,-12.033473],[-77.009854,-12.030393],[-77.011682,-12.0321],[-77.012445,-12.03433],[-77.012611,-12.037324],[-77.013199,-12.039836],[-77.014898,-12.042674],[-77.01649,-12.043885],[-77.01891,-12.044395],[-77.022117,-12.04382],[-77.027287,-12.043566],[-77.030791,-12.042803],[-77.036238,-12.040572],[-77.039678,-12.039012],[-77.043412,-12.038844],[-77.044967,-12.038883],[-77.045719,-12.038521],[-77.047596,-12.036041],[-77.048924,-12.035705],[-77.053201,-12.036738],[-77.054555,-12.036451],[-77.056807,-12.036389],[-77.062855,-12.035195],[-77.065514,-12.034854],[-77.068232,-12.034713],[-77.071473,-12.034357],[-77.074539,-12.034588],[-77.076324,-12.035143],[-77.077904,-12.035268],[-77.079781,-12.03584],[-77.082939,-12.036375],[-77.082594,-12.039205],[-77.08317,-12.039246],[-77.082633,-12.045037],[-77.081721,-12.044957],[-77.081547,-12.047018],[-77.077027,-12.046646],[-77.077068,-12.048002],[-77.078422,-12.050066],[-77.087906,-12.05175],[-77.087666,-12.051995],[-77.088468,-12.058683],[-77.088154,-12.061609],[-77.083053,-12.061268],[-77.078941,-12.060258],[-77.078537,-12.062402],[-77.07773,-12.068547],[-77.065658,-12.067615],[-77.06117,-12.067525],[-77.059256,-12.062066],[-77.057555,-12.055551],[-77.055402,-12.052617],[-77.053746,-12.049131],[-77.052076,-12.04934],[-77.045596,-12.050689],[-77.042404,-12.050873],[-77.04151,-12.060201],[-77.045747,-12.065347],[-77.037602,-12.064283],[-77.038113,-12.067879],[-77.036322,-12.079869],[-77.028068,-12.078711],[-77.035324,-12.060381],[-77.035408,-12.059549],[-77.017422,-12.057461],[-77.016611,-12.058889],[-77.015588,-12.061404],[-77.010771,-12.060828],[-77.003156,-12.062617]]]}},{"type":"Feature","properties":{"id":16,"DISTRITO":"BREÑA","DISTRITO2":null,"PROVINCIA":"LIMA","DEPARTAMENTO":"LIMA","FUENTE":"IGN"},"geometry":{"type":"Polygon","coordinates":[[[-77.049736,-12.070172],[-77.045747,-12.065347],[-77.04151,-12.060201],[-77.042404,-12.050873],[-77.045596,-12.050689],[-77.052076,-12.04934],[-77.053746,-12.049131],[-77.055402,-12.052617],[-77.057555,-12.055551],[-77.059256,-12.062066],[-77.06117,-12.067525],[-77.054199,-12.066547],[-77.049736,-12.070172]]]}},{"type":"Feature","properties":{"id":1,"DISTRITO":"LINCE","DISTRITO2":null,"PROVINCIA":"LIMA","DEPARTAMENTO":"LIMA","FUENTE":"IGN"},"geometry":{"type":"Polygon","coordinates":[[[-77.028068,-12.078711],[-77.036322,-12.079869],[-77.041819,-12.080612],[-77.04197,-12.082894],[-77.043715,-12.083151],[-77.046369,-12.08303],[-77.048589,-12.085016],[-77.047617,-12.091576],[-77.046453,-12.091672],[-77.043062,-12.091201],[-77.043172,-12.090455],[-77.033734,-12.08917],[-77.033459,-12.09073],[-77.029879,-12.091189],[-77.030168,-12.09191],[-77.022812,-12.090812],[-77.024713,-12.087124],[-77.028068,-12.078711]]]}},{"type":"Feature","properties":{"id":6,"DISTRITO":"JESUS MARIA","DISTRITO2":null,"PROVINCIA":"LIMA","DEPARTAMENTO":"LIMA","FUENTE":"IGN"},"geometry":{"type":"Polygon","coordinates":[[[-77.048589,-12.085016],[-77.046369,-12.08303],[-77.043715,-12.083151],[-77.04197,-12.082894],[-77.041819,-12.080612],[-77.036322,-12.079869],[-77.038113,-12.067879],[-77.037602,-12.064283],[-77.045747,-12.065347],[-77.049736,-12.070172],[-77.063206,-12.086481],[-77.054996,-12.09191],[-77.053271,-12.093017],[-77.050115,-12.086919],[-77.048589,-12.085016]]]}},{"type":"Feature","properties":{"id":8,"DISTRITO":"SAN MIGUEL","DISTRITO2":null,"PROVINCIA":"LIMA","DEPARTAMENTO":"LIMA","FUENTE":"IGN"},"geometry":{"type":"Polygon","coordinates":[[[-77.072104,-12.083584],[-77.071422,-12.081592],[-77.0794,-12.078643],[-77.080707,-12.078309],[-77.080883,-12.077092],[-77.080211,-12.075582],[-77.078408,-12.073102],[-77.07773,-12.068547],[-77.078537,-12.062402],[-77.078941,-12.060258],[-77.083053,-12.061268],[-77.088154,-12.061609],[-77.092887,-12.06211],[-77.104608,-12.063173],[-77.103955,-12.06682],[-77.104139,-12.068785],[-77.104857,-12.07199],[-77.105988,-12.07425],[-77.107564,-12.073619],[-77.109977,-12.077455],[-77.110467,-12.077244],[-77.111354,-12.079195],[-77.109494,-12.080411],[-77.106123,-12.081997],[-77.104376,-12.083104],[-77.102354,-12.083908],[-77.09965,-12.084658],[-77.093508,-12.087632],[-77.090112,-12.089627],[-77.082243,-12.093561],[-77.077943,-12.095816],[-77.077681,-12.09559],[-77.075115,-12.088596],[-77.074094,-12.088941],[-77.07375,-12.087961],[-77.074914,-12.087502],[-77.073922,-12.08568],[-77.073539,-12.085814],[-77.072104,-12.083584]]]}},{"type":"Feature","properties":{"id":49,"DISTRITO":"MAGDALENA DEL MAR","DISTRITO2":null,"PROVINCIA":"LIMA","DEPARTAMENTO":"LIMA","FUENTE":"IGN"},"geometry":{"type":"Polygon","coordinates":[[[-77.072104,-12.083584],[-77.073539,-12.085814],[-77.073922,-12.08568],[-77.074914,-12.087502],[-77.07375,-12.087961],[-77.074094,-12.088941],[-77.075115,-12.088596],[-77.077681,-12.09559],[-77.077943,-12.095816],[-77.074231,-12.097872],[-77.072487,-12.099066],[-77.072024,-12.099984],[-77.067952,-12.102573],[-77.065533,-12.104345],[-77.06331,-12.106362],[-77.061331,-12.107775],[-77.060432,-12.106591],[-77.060309,-12.105168],[-77.060779,-12.102133],[-77.060201,-12.099889],[-77.058385,-12.09667],[-77.058885,-12.096404],[-77.057385,-12.092553],[-77.055768,-12.093387],[-77.054996,-12.09191],[-77.063206,-12.086481],[-77.064382,-12.086331],[-77.072104,-12.083584]]]}},{"type":"Feature","properties":{"id":50,"DISTRITO":"SAN ISIDRO","DISTRITO2":"San Isidro","PROVINCIA":"LIMA","DEPARTAMENTO":"LIMA","FUENTE":"IGN"},"geometry":{"type":"Polygon","coordinates":[[[-77.022812,-12.090812],[-77.030168,-12.09191],[-77.029879,-12.091189],[-77.033459,-12.09073],[-77.033734,-12.08917],[-77.043172,-12.090455],[-77.043062,-12.091201],[-77.046453,-12.091672],[-77.047617,-12.091576],[-77.048589,-12.085016],[-77.050115,-12.086919],[-77.053271,-12.093017],[-77.054996,-12.09191],[-77.055768,-12.093387],[-77.057385,-12.092553],[-77.058885,-12.096404],[-77.058385,-12.09667],[-77.060201,-12.099889],[-77.060779,-12.102133],[-77.060309,-12.105168],[-77.060432,-12.106591],[-77.061331,-12.107775],[-77.060483,-12.108273],[-77.056032,-12.111583],[-77.054463,-12.109875],[-77.053268,-12.108965],[-77.0514,-12.110352],[-77.04927,-12.108369],[-77.046691,-12.110941],[-77.046186,-12.110463],[-77.04415,-12.110477],[-77.043113,-12.110846],[-77.040463,-12.108346],[-77.039041,-12.109752],[-77.03825,-12.108975],[-77.037156,-12.110066],[-77.036611,-12.110025],[-77.031488,-12.103551],[-77.027379,-12.102879],[-77.018766,-12.101922],[-77.016412,-12.102297],[-77.016119,-12.103562],[-77.016553,-12.105568],[-77.014691,-12.108041],[-77.010497,-12.107289],[-77.011916,-12.100825],[-77.012116,-12.099111],[-77.011615,-12.097101],[-77.007712,-12.089864],[-77.007652,-12.088675],[-77.009848,-12.088959],[-77.022812,-12.090812]]]}},{"type":"Feature","properties":{"id":30,"DISTRITO":"MIRAFLORES","DISTRITO2":"Miraflores","PROVINCIA":"LIMA","DEPARTAMENTO":"LIMA","FUENTE":"IGN"},"geometry":{"type":"Polygon","coordinates":[[[-77.002672,-12.12652],[-77.010168,-12.115691],[-77.013029,-12.117527],[-77.013246,-12.118793],[-77.013803,-12.119379],[-77.017295,-12.119436],[-77.017279,-12.120549],[-77.018213,-12.120562],[-77.018234,-12.119414],[-77.024096,-12.119842],[-77.025852,-12.119119],[-77.026156,-12.116658],[-77.025908,-12.113373],[-77.026422,-12.108262],[-77.027301,-12.106121],[-77.027379,-12.102879],[-77.031488,-12.103551],[-77.036611,-12.110025],[-77.037156,-12.110066],[-77.03825,-12.108975],[-77.039041,-12.109752],[-77.040463,-12.108346],[-77.043113,-12.110846],[-77.04415,-12.110477],[-77.046186,-12.110463],[-77.046691,-12.110941],[-77.04927,-12.108369],[-77.0514,-12.110352],[-77.053268,-12.108965],[-77.054463,-12.109875],[-77.056032,-12.111583],[-77.052691,-12.113807],[-77.050997,-12.115526],[-77.050463,-12.116391],[-77.048725,-12.117904],[-77.046242,-12.119365],[-77.045574,-12.12035],[-77.046075,-12.121265],[-77.043446,-12.12306],[-77.040444,-12.124605],[-77.038861,-12.12597],[-77.038578,-12.126847],[-77.03768,-12.127644],[-77.037181,-12.128774],[-77.035051,-12.130959],[-77.030355,-12.13396],[-77.029553,-12.135124],[-77.028024,-12.139419],[-77.026561,-12.137783],[-77.025814,-12.136504],[-77.022996,-12.135268],[-77.021699,-12.13407],[-77.019527,-12.130527],[-77.019148,-12.13127],[-77.018,-12.131246],[-77.018023,-12.130422],[-77.016434,-12.130539],[-77.015582,-12.129541],[-77.013738,-12.12941],[-77.012574,-12.130812],[-77.011309,-12.130082],[-77.00943,-12.12991],[-77.009545,-12.127625],[-77.001631,-12.128861],[-77.001342,-12.128363],[-77.002672,-12.12652]]]}},{"type":"Feature","properties":{"id":29,"DISTRITO":"SURQUILLO","DISTRITO2":null,"PROVINCIA":"LIMA","DEPARTAMENTO":"LIMA","FUENTE":"IGN"},"geometry":{"type":"Polygon","coordinates":[[[-77.010497,-12.107289],[-77.014691,-12.108041],[-77.016553,-12.105568],[-77.016119,-12.103562],[-77.016412,-12.102297],[-77.018766,-12.101922],[-77.027379,-12.102879],[-77.027301,-12.106121],[-77.026422,-12.108262],[-77.025908,-12.113373],[-77.026156,-12.116658],[-77.025852,-12.119119],[-77.024096,-12.119842],[-77.018234,-12.119414],[-77.018213,-12.120562],[-77.017279,-12.120549],[-77.017295,-12.119436],[-77.013803,-12.119379],[-77.013246,-12.118793],[-77.013029,-12.117527],[-77.010168,-12.115691],[-77.002672,-12.12652],[-77.002104,-12.125426],[-77.000773,-12.124377],[-76.998822,-12.121451],[-76.998154,-12.120094],[-76.997443,-12.119969],[-76.996086,-12.1165],[-76.99548,-12.115602],[-76.993822,-12.112281],[-76.993735,-12.111268],[-77.009611,-12.11238],[-77.009989,-12.108359],[-77.010497,-12.107289]]]}},{"type":"Feature","properties":{"id":2,"DISTRITO":"SAN BORJA","DISTRITO2":"San Borja","PROVINCIA":"LIMA","DEPARTAMENTO":"LIMA","FUENTE":"IGN"},"geometry":{"type":"Polygon","coordinates":[[[-76.98406,-12.08473],[-76.984281,-12.083878],[-76.987339,-12.079928],[-76.989641,-12.081698],[-76.993476,-12.081698],[-76.993581,-12.080962],[-76.995859,-12.08161],[-76.998657,-12.083185],[-76.999493,-12.083424],[-77.004137,-12.084082],[-77.010022,-12.084899],[-77.010155,-12.08653],[-77.009848,-12.088959],[-77.007652,-12.088675],[-77.007712,-12.089864],[-77.011615,-12.097101],[-77.012116,-12.099111],[-77.011916,-12.100825],[-77.010497,-12.107289],[-77.009989,-12.108359],[-77.009611,-12.11238],[-76.993735,-12.111268],[-76.978256,-12.110222],[-76.980714,-12.092513],[-76.981269,-12.088742],[-76.98181,-12.08787],[-76.983644,-12.08653],[-76.98406,-12.08473]]]}},{"type":"Feature","properties":{"id":10,"DISTRITO":"SAN LUIS","DISTRITO2":null,"PROVINCIA":"LIMA","DEPARTAMENTO":"LIMA","FUENTE":"IGN"},"geometry":{"type":"Polygon","coordinates":[[[-76.997797,-12.06084],[-76.999844,-12.060598],[-76.999934,-12.061475],[-77.001818,-12.06185],[-77.002854,-12.06158],[-77.003156,-12.062617],[-77.001232,-12.063336],[-76.999928,-12.063498],[-76.996295,-12.068324],[-77.0025,-12.071922],[-77.007883,-12.07493],[-77.009887,-12.076678],[-77.010363,-12.078201],[-77.009467,-12.079527],[-77.00602,-12.080799],[-77.004844,-12.08182],[-77.004137,-12.084082],[-76.999493,-12.083424],[-76.998657,-12.083185],[-76.995859,-12.08161],[-76.993581,-12.080962],[-76.993476,-12.081698],[-76.989641,-12.081698],[-76.987339,-12.079928],[-76.99083,-12.075422],[-76.990519,-12.073818],[-76.987623,-12.07352],[-76.988775,-12.071424],[-76.986961,-12.064035],[-76.989336,-12.064371],[-76.995787,-12.063773],[-76.998096,-12.063666],[-76.997797,-12.06084]]]}},{"type":"Feature","properties":{"id":9,"DISTRITO":"LA VICTORIA","DISTRITO2":null,"PROVINCIA":"LIMA","DEPARTAMENTO":"LIMA","FUENTE":"IGN"},"geometry":{"type":"Polygon","coordinates":[[[-77.003156,-12.062617],[-77.010771,-12.060828],[-77.015588,-12.061404],[-77.016611,-12.058889],[-77.017422,-12.057461],[-77.035408,-12.059549],[-77.035324,-12.060381],[-77.028068,-12.078711],[-77.024713,-12.087124],[-77.022812,-12.090812],[-77.009848,-12.088959],[-77.010155,-12.08653],[-77.010022,-12.084899],[-77.004137,-12.084082],[-77.004844,-12.08182],[-77.00602,-12.080799],[-77.009467,-12.079527],[-77.010363,-12.078201],[-77.009887,-12.076678],[-77.007883,-12.07493],[-77.0025,-12.071922],[-76.996295,-12.068324],[-76.999928,-12.063498],[-77.001232,-12.063336],[-77.003156,-12.062617]]]}},{"type":"Feature","properties":{"id":46,"DISTRITO":"SAN JUAN DE LURIGANCHO","DISTRITO2":null,"PROVINCIA":"LIMA","DEPARTAMENTO":"LIMA","FUENTE":"IGN"},"geometry":{"type":"Polygon","coordinates":[[[-76.923965,-11.869264],[-76.925049,-11.869916],[-76.928199,-11.870771],[-76.931176,-11.870371],[-76.934182,-11.87027],[-76.936219,-11.869352],[-76.939666,-11.865766],[-76.940301,-11.864885],[-76.941178,-11.862729],[-76.942277,-11.860868],[-76.943527,-11.861545],[-76.94735,-11.861674],[-76.95134,-11.864492],[-76.954537,-11.866197],[-76.95652,-11.86857],[-76.957756,-11.871445],[-76.961562,-11.873352],[-76.964127,-11.875377],[-76.966125,-11.877541],[-76.968201,-11.879299],[-76.970283,-11.882148],[-76.974801,-11.886582],[-76.980461,-11.891541],[-76.983795,-11.893742],[-76.986213,-11.89565],[-76.989303,-11.898484],[-76.98941,-11.899514],[-76.989021,-11.900891],[-76.989197,-11.904115],[-76.989891,-11.905783],[-76.991531,-11.908059],[-76.991676,-11.909484],[-76.990814,-11.912031],[-76.989381,-11.914428],[-76.987549,-11.916771],[-76.987389,-11.917496],[-76.988342,-11.918557],[-76.989486,-11.918846],[-76.995346,-11.918117],[-76.997498,-11.918465],[-76.998215,-11.919137],[-76.99926,-11.921045],[-76.99958,-11.92352],[-77.000641,-11.924904],[-77.002221,-11.925346],[-77.005012,-11.928127],[-77.006707,-11.93042],[-77.007844,-11.931369],[-77.013764,-11.935277],[-77.01532,-11.936604],[-77.015998,-11.936717],[-77.018051,-11.935717],[-77.020332,-11.93608],[-77.020104,-11.936859],[-77.016998,-11.938553],[-77.016242,-11.939805],[-77.016074,-11.941949],[-77.017197,-11.946387],[-77.017639,-11.949584],[-77.019051,-11.951869],[-77.02333,-11.954523],[-77.025918,-11.956926],[-77.027008,-11.958311],[-77.028281,-11.960678],[-77.028717,-11.96252],[-77.028793,-11.96402],[-77.027488,-11.966334],[-77.028877,-11.968637],[-77.029564,-11.971109],[-77.029449,-11.975674],[-77.028672,-11.981834],[-77.028908,-11.982844],[-77.030014,-11.984906],[-77.03035,-11.986215],[-77.030229,-11.992543],[-77.030654,-11.996389],[-77.029189,-11.997766],[-77.028168,-12.003475],[-77.025574,-12.006061],[-77.025352,-12.00824],[-77.023338,-12.010152],[-77.022805,-12.01183],[-77.02082,-12.014609],[-77.019951,-12.017047],[-77.019576,-12.019525],[-77.019615,-12.02108],[-77.020539,-12.023307],[-77.022162,-12.025568],[-77.022049,-12.028176],[-77.021332,-12.029365],[-77.018922,-12.032301],[-77.016459,-12.036035],[-77.014715,-12.036926],[-77.012611,-12.037324],[-77.012445,-12.03433],[-77.011682,-12.0321],[-77.009854,-12.030393],[-77.008598,-12.029893],[-77.004977,-12.0296],[-77.000623,-12.028008],[-76.995809,-12.027045],[-76.991162,-12.026836],[-76.986682,-12.026502],[-76.982035,-12.02558],[-76.980152,-12.025496],[-76.977051,-12.026076],[-76.974418,-12.026059],[-76.972588,-12.026396],[-76.967094,-12.026734],[-76.964859,-12.026098],[-76.960189,-12.023988],[-76.956275,-12.023131],[-76.953629,-12.021857],[-76.952736,-12.019721],[-76.952721,-12.018619],[-76.954002,-12.013863],[-76.955582,-12.01125],[-76.961326,-12.006455],[-76.964059,-12.005252],[-76.966432,-12.004775],[-76.967408,-12.004279],[-76.96891,-12.002615],[-76.969498,-12.000867],[-76.971176,-11.99798],[-76.970992,-11.995922],[-76.970475,-11.995418],[-76.967537,-11.993775],[-76.966432,-11.992699],[-76.964379,-11.987914],[-76.962311,-11.984123],[-76.960654,-11.981867],[-76.958992,-11.980088],[-76.958026,-11.976763],[-76.958103,-11.97588],[-76.954173,-11.971363],[-76.953993,-11.969681],[-76.952635,-11.96773],[-76.951044,-11.963894],[-76.950892,-11.962249],[-76.950864,-11.958412],[-76.950428,-11.955972],[-76.950385,-11.953824],[-76.948999,-11.952476],[-76.947013,-11.95217],[-76.944104,-11.953069],[-76.941506,-11.952208],[-76.939429,-11.950585],[-76.93763,-11.948082],[-76.93636,-11.947197],[-76.934044,-11.946393],[-76.933116,-11.945852],[-76.931973,-11.944243],[-76.931258,-11.942229],[-76.929637,-11.940549],[-76.929385,-11.939427],[-76.929646,-11.936824],[-76.927762,-11.934255],[-76.92465,-11.932254],[-76.920148,-11.930795],[-76.918449,-11.930065],[-76.915551,-11.927422],[-76.914168,-11.925518],[-76.914917,-11.923388],[-76.918113,-11.920305],[-76.918267,-11.919779],[-76.918058,-11.916773],[-76.91712,-11.915256],[-76.916524,-11.912854],[-76.917131,-11.911016],[-76.917609,-11.908431],[-76.917763,-11.905576],[-76.916325,-11.902932],[-76.91478,-11.900859],[-76.914244,-11.899536],[-76.913645,-11.896547],[-76.913348,-11.891445],[-76.912518,-11.888676],[-76.911919,-11.888121],[-76.910419,-11.887976],[-76.90445,-11.886113],[-76.903539,-11.88555],[-76.900619,-11.882925],[-76.897659,-11.882001],[-76.896939,-11.881272],[-76.896547,-11.880047],[-76.896803,-11.87803],[-76.89756,-11.875547],[-76.897729,-11.871836],[-76.896315,-11.869336],[-76.895986,-11.867752],[-76.895296,-11.866237],[-76.894229,-11.86471],[-76.895907,-11.864161],[-76.897911,-11.864322],[-76.900535,-11.863998],[-76.90384,-11.864951],[-76.905562,-11.864705],[-76.908408,-11.864695],[-76.913666,-11.865184],[-76.916344,-11.865736],[-76.918365,-11.866934],[-76.921311,-11.868229],[-76.923965,-11.869264]]]}}]}